{"type": "FeatureCollection", "features": [{"type": "Feature", "properties": {"NUTS_ID": "ES709", "LEVL_CODE": 3, "CNTR_CODE": "ES", "NAME_LATN": "Tenerife", "NUTS_NAME": "Tenerife", "MOUNT_TYPE": 3, "URBN_TYPE": 1, "COAST_TYPE": 1, "NAME_ENGL": "Spain", "NAME_FREN": "Espagne", "ISO3_CODE": "ESP", "SVRG_UN": "UN Member State", "CAPT": "Madrid", "EU_STAT": "T", "EFTA_STAT": "F", "CC_STAT": "F", "NAME_GERM": "Spanien"}, "geometry": {"type": "MultiPolygon", "coordinates": [[[[-16.906706733999954, 28.347517157000027], [-16.83024278499994, 28.392431318000035], [-16.751555069999938, 28.371693437000033], [-16.67395149999993, 28.400407097000027], [-16.52321184699997, 28.417727735000028], [-16.383764620999955, 28.546389371000032], [-16.31981235799998, 28.57810339100007], [-16.22373774099998, 28.566112729000054], [-16.157448073999944, 28.588459589000024], [-16.126050685999928, 28.533107594000057], [-16.234634468999957, 28.486057472000027], [-16.35971935599997, 28.378666784000075], [-16.362292191999927, 28.304655997000054], [-16.423925057999952, 28.20513361500008], [-16.426622083999973, 28.151377242000024], [-16.54069709099997, 28.030838294000034], [-16.707500873999948, 28.010057079000035], [-16.738768069999935, 28.08721348800003], [-16.836236176999932, 28.207328645000075], [-16.83893670699996, 28.25714153800004], [-16.906706733999954, 28.347517157000027]]]]}}, {"type": "Feature", "properties": {"NUTS_ID": "ES111", "LEVL_CODE": 3, "CNTR_CODE": "ES", "NAME_LATN": "A Coru\u00f1a", "NUTS_NAME": "A Coru\u00f1a", "MOUNT_TYPE": 2, "URBN_TYPE": 2, "COAST_TYPE": 1, "NAME_ENGL": "Spain", "NAME_FREN": "Espagne", "ISO3_CODE": "ESP", "SVRG_UN": "UN Member State", "CAPT": "Madrid", "EU_STAT": "T", "EFTA_STAT": "F", "CC_STAT": "F", "NAME_GERM": "Spanien"}, "geometry": {"type": "MultiPolygon", "coordinates": [[[[-7.699736499999972, 43.735114999000075], [-7.75877944399997, 43.509912375000056], [-7.944032464999964, 43.22045200700006], [-7.917207044999941, 42.970548448000045], [-7.966555340999946, 42.89773805100003], [-7.999684499999944, 42.848857999000074], [-8.18889743699998, 42.852035846000035], [-8.332301160999975, 42.801857160000054], [-8.68369751299997, 42.70065096700006], [-8.726749499999926, 42.688251499000046], [-9.004555401999937, 42.56618924600008], [-9.012057502999937, 42.70065096700006], [-8.985230067999964, 42.76376050500005], [-9.148590826999964, 42.801857160000054], [-9.135465469999929, 42.89773805100003], [-9.247499876999939, 42.98967699600007], [-9.13595427599995, 43.172530462000054], [-8.860290340999939, 43.311668299000075], [-8.27812967999995, 43.37328501800005], [-8.296346311999969, 43.50286332300004], [-8.240617603999965, 43.56789588100003], [-7.91273407999995, 43.73815796500003], [-7.699736499999972, 43.735114999000075]]]]}}, {"type": "Feature", "properties": {"NUTS_ID": "ES112", "LEVL_CODE": 3, "CNTR_CODE": "ES", "NAME_LATN": "Lugo", "NUTS_NAME": "Lugo", "MOUNT_TYPE": 2, "URBN_TYPE": 3, "COAST_TYPE": 1, "NAME_ENGL": "Spain", "NAME_FREN": "Espagne", "ISO3_CODE": "ESP", "SVRG_UN": "UN Member State", "CAPT": "Madrid", "EU_STAT": "T", "EFTA_STAT": "F", "CC_STAT": "F", "NAME_GERM": "Spanien"}, "geometry": {"type": "MultiPolygon", "coordinates": [[[[-7.259473720999949, 43.58379513400007], [-7.031837, 43.54447149900005], [-7.16281881499998, 43.39074521600003], [-6.944978163999963, 43.15887640900007], [-6.852663538999934, 43.14577894900003], [-6.937793358999954, 43.04134809200008], [-6.824167, 42.915012499000056], [-7.010484398999949, 42.686152357000026], [-7.076834, 42.50812399900008], [-7.129953762999946, 42.44875659000007], [-7.200557853999953, 42.36984844700004], [-7.352715596999928, 42.43059864500003], [-7.545891161999975, 42.395835213000055], [-7.711649722999937, 42.44875659000007], [-7.839974230999928, 42.48972647800008], [-7.930711, 42.57857449900007], [-7.916721975999963, 42.61750184600004], [-7.886841310999955, 42.70065096700006], [-7.999684499999944, 42.848857999000074], [-7.966555340999946, 42.89773805100003], [-7.917207044999941, 42.970548448000045], [-7.944032464999964, 43.22045200700006], [-7.75877944399997, 43.509912375000056], [-7.699736499999972, 43.735114999000075], [-7.46230645199995, 43.71544861800004], [-7.259473720999949, 43.58379513400007]]]]}}, {"type": "Feature", "properties": {"NUTS_ID": "ES113", "LEVL_CODE": 3, "CNTR_CODE": "ES", "NAME_LATN": "Ourense", "NUTS_NAME": "Ourense", "MOUNT_TYPE": 3, "URBN_TYPE": 3, "COAST_TYPE": 3, "NAME_ENGL": "Spain", "NAME_FREN": "Espagne", "ISO3_CODE": "ESP", "SVRG_UN": "UN Member State", "CAPT": "Madrid", "EU_STAT": "T", "EFTA_STAT": "F", "CC_STAT": "F", "NAME_GERM": "Spanien"}, "geometry": {"type": "MultiPolygon", "coordinates": [[[[-7.129953762999946, 42.44875659000007], [-7.076834, 42.50812399900008], [-6.841968564999945, 42.47862045900007], [-6.821880466999971, 42.44875659000007], [-6.752502788999948, 42.345616617000076], [-6.784308, 42.25360849900005], [-6.816637374999971, 42.232478393000065], [-6.968189913999936, 42.13342540700006], [-6.985800499999925, 41.97144699900008], [-7.159132773999943, 41.97323650000004], [-7.200464499999953, 41.87974949900007], [-7.416297006999969, 41.82755275900007], [-7.734527950999961, 41.90198864000007], [-8.05186249999997, 41.820613999000045], [-8.165075499999944, 41.81830199900003], [-8.196292029999938, 41.92518447500004], [-8.104500905999942, 42.03778333400004], [-8.199000499999954, 42.15441899900003], [-8.23188971199994, 42.232478393000065], [-8.323015444999953, 42.44875659000007], [-8.191019557999937, 42.54733487300007], [-7.930711, 42.57857449900007], [-7.839974230999928, 42.48972647800008], [-7.711649722999937, 42.44875659000007], [-7.545891161999975, 42.395835213000055], [-7.352715596999928, 42.43059864500003], [-7.200557853999953, 42.36984844700004], [-7.129953762999946, 42.44875659000007]]]]}}, {"type": "Feature", "properties": {"NUTS_ID": "ES114", "LEVL_CODE": 3, "CNTR_CODE": "ES", "NAME_LATN": "Pontevedra", "NUTS_NAME": "Pontevedra", "MOUNT_TYPE": 2, "URBN_TYPE": 2, "COAST_TYPE": 1, "NAME_ENGL": "Spain", "NAME_FREN": "Espagne", "ISO3_CODE": "ESP", "SVRG_UN": "UN Member State", "CAPT": "Madrid", "EU_STAT": "T", "EFTA_STAT": "F", "CC_STAT": "F", "NAME_GERM": "Spanien"}, "geometry": {"type": "MultiPolygon", "coordinates": [[[[-7.999684499999944, 42.848857999000074], [-7.886841310999955, 42.70065096700006], [-7.916721975999963, 42.61750184600004], [-7.930711, 42.57857449900007], [-8.191019557999937, 42.54733487300007], [-8.323015444999953, 42.44875659000007], [-8.23188971199994, 42.232478393000065], [-8.199000499999954, 42.15441899900003], [-8.60835721199993, 42.051533781000046], [-8.863186, 41.87206649900003], [-8.866046537999978, 42.08649577800003], [-8.788980179999953, 42.232478393000065], [-8.829625445999966, 42.27709319000007], [-8.78513380499993, 42.37155753400003], [-8.83519176699997, 42.44875659000007], [-8.726749499999926, 42.688251499000046], [-8.68369751299997, 42.70065096700006], [-8.332301160999975, 42.801857160000054], [-8.18889743699998, 42.852035846000035], [-7.999684499999944, 42.848857999000074]]]]}}, {"type": "Feature", "properties": {"NUTS_ID": "ES120", "LEVL_CODE": 3, "CNTR_CODE": "ES", "NAME_LATN": "Asturias", "NUTS_NAME": "Asturias", "MOUNT_TYPE": 2, "URBN_TYPE": 2, "COAST_TYPE": 1, "NAME_ENGL": "Spain", "NAME_FREN": "Espagne", "ISO3_CODE": "ESP", "SVRG_UN": "UN Member State", "CAPT": "Madrid", "EU_STAT": "T", "EFTA_STAT": "F", "CC_STAT": "F", "NAME_GERM": "Spanien"}, "geometry": {"type": "MultiPolygon", "coordinates": [[[[-4.512301, 43.393203999000036], [-4.543418180999936, 43.29450191400008], [-4.841038499999968, 43.180709499000045], [-4.92143402399995, 43.21973639500004], [-5.143378884999947, 43.09814691200006], [-5.696574450999947, 43.03491689100008], [-5.811156977999929, 42.97034104100004], [-6.019390743999963, 43.06698873700003], [-6.292144823999934, 43.03179708300007], [-6.375875917999963, 43.038569291000044], [-6.525656846999937, 42.92310835600006], [-6.824167, 42.915012499000056], [-6.937793358999954, 43.04134809200008], [-6.852663538999934, 43.14577894900003], [-6.944978163999963, 43.15887640900007], [-7.16281881499998, 43.39074521600003], [-7.031837, 43.54447149900005], [-6.292144823999934, 43.56991312500003], [-5.842845534999981, 43.64157703300003], [-5.659813197999938, 43.550314496000055], [-5.386460129999932, 43.55022598000005], [-5.180438978999973, 43.47383628100005], [-4.512301, 43.393203999000036]]]]}}, {"type": "Feature", "properties": {"NUTS_ID": "ES130", "LEVL_CODE": 3, "CNTR_CODE": "ES", "NAME_LATN": "Cantabria", "NUTS_NAME": "Cantabria", "MOUNT_TYPE": 2, "URBN_TYPE": 2, "COAST_TYPE": 1, "NAME_ENGL": "Spain", "NAME_FREN": "Espagne", "ISO3_CODE": "ESP", "SVRG_UN": "UN Member State", "CAPT": "Madrid", "EU_STAT": "T", "EFTA_STAT": "F", "CC_STAT": "F", "NAME_GERM": "Spanien"}, "geometry": {"type": "MultiPolygon", "coordinates": [[[[-3.153338, 43.35322199900003], [-3.266109323999956, 43.25573314400003], [-3.421626140999933, 43.24224623500004], [-3.417681499999958, 43.133369499000025], [-3.651123106999933, 43.15403063800005], [-3.880481122999925, 43.031155209000076], [-3.941441698999938, 42.95312602000007], [-3.902027663999945, 42.89773805100003], [-3.840879884999936, 42.81180796800004], [-3.99967, 42.76893249900007], [-3.99748352499995, 42.801857160000054], [-4.030072717999928, 42.801857160000054], [-4.04593, 42.76656699900008], [-4.081359, 42.76141749900006], [-4.16520094699996, 42.801857160000054], [-4.223924193999949, 42.89773805100003], [-4.252315652999926, 42.94409445200006], [-4.425902169999972, 43.041482993000045], [-4.737023, 43.02092349900005], [-4.841038499999968, 43.180709499000045], [-4.543418180999936, 43.29450191400008], [-4.512301, 43.393203999000036], [-3.860867324999958, 43.482105569000055], [-3.788849719999973, 43.43806271600005], [-3.589388528999962, 43.50305598800003], [-3.153338, 43.35322199900003]]]]}}, {"type": "Feature", "properties": {"NUTS_ID": "ES211", "LEVL_CODE": 3, "CNTR_CODE": "ES", "NAME_LATN": "Araba/\u00c1lava", "NUTS_NAME": "Araba/\u00c1lava", "MOUNT_TYPE": 3, "URBN_TYPE": 1, "COAST_TYPE": 3, "NAME_ENGL": "Spain", "NAME_FREN": "Espagne", "ISO3_CODE": "ESP", "SVRG_UN": "UN Member State", "CAPT": "Madrid", "EU_STAT": "T", "EFTA_STAT": "F", "CC_STAT": "F", "NAME_GERM": "Spanien"}, "geometry": {"type": "MultiPolygon", "coordinates": [[[[-2.546387, 43.08800899900007], [-2.536659552999936, 42.96804243100007], [-2.250807, 42.89569099900007], [-2.323995329999946, 42.68583101400003], [-2.41559431099995, 42.63237665100007], [-2.437602925999954, 42.60342518300007], [-2.420719, 42.489269499000045], [-2.51435455799998, 42.49071047700005], [-2.584358102999943, 42.49178777700007], [-2.637846511999953, 42.49261092200004], [-2.712272997999946, 42.59944718300005], [-2.780276195999932, 42.61750184600004], [-2.858117499999935, 42.63816849900007], [-2.954997793999951, 42.70065096700006], [-3.203665069999943, 42.86102769900003], [-3.153163006999932, 42.89773805100003], [-3.036989499999947, 42.982185499000025], [-3.012977731999968, 42.99987270500003], [-3.042080189999979, 43.02720314800007], [-3.066244621999942, 43.02377915400007], [-3.089023499999939, 43.00158299900005], [-3.141396, 43.16148349900004], [-2.981634149999934, 43.180291890000035], [-2.944955583999956, 43.08542816800008], [-2.854909146999944, 43.045314002000055], [-2.584358102999943, 43.08275434800004], [-2.546387, 43.08800899900007]], [[-2.766934270999968, 42.667090890000054], [-2.594263810999962, 42.65322083800004], [-2.584358102999943, 42.69613746600004], [-2.575449509999942, 42.734734082000045], [-2.584358102999943, 42.738031945000046], [-2.73166664699994, 42.79256393500003], [-2.833219540999949, 42.794856949000064], [-2.865580147999935, 42.739582358000064], [-2.766934270999968, 42.667090890000054]]]]}}, {"type": "Feature", "properties": {"NUTS_ID": "ES212", "LEVL_CODE": 3, "CNTR_CODE": "ES", "NAME_LATN": "Gipuzkoa", "NUTS_NAME": "Gipuzkoa", "MOUNT_TYPE": 2, "URBN_TYPE": 1, "COAST_TYPE": 1, "NAME_ENGL": "Spain", "NAME_FREN": "Espagne", "ISO3_CODE": "ESP", "SVRG_UN": "UN Member State", "CAPT": "Madrid", "EU_STAT": "T", "EFTA_STAT": "F", "CC_STAT": "F", "NAME_GERM": "Spanien"}, "geometry": {"type": "MultiPolygon", "coordinates": [[[[-1.728903, 43.29608899900006], [-2.250807, 42.89569099900007], [-2.536659552999936, 42.96804243100007], [-2.546387, 43.08800899900007], [-2.51435455799998, 43.14391681300003], [-2.412847, 43.321082999000055], [-2.173186381999926, 43.29299140400008], [-2.093750417999956, 43.30478500900006], [-1.785978, 43.350478999000075], [-1.728903, 43.29608899900006]]]]}}, {"type": "Feature", "properties": {"NUTS_ID": "ES213", "LEVL_CODE": 3, "CNTR_CODE": "ES", "NAME_LATN": "Bizkaia", "NUTS_NAME": "Bizkaia", "MOUNT_TYPE": 3, "URBN_TYPE": 1, "COAST_TYPE": 1, "NAME_ENGL": "Spain", "NAME_FREN": "Espagne", "ISO3_CODE": "ESP", "SVRG_UN": "UN Member State", "CAPT": "Madrid", "EU_STAT": "T", "EFTA_STAT": "F", "CC_STAT": "F", "NAME_GERM": "Spanien"}, "geometry": {"type": "MultiPolygon", "coordinates": [[[[-2.412847, 43.321082999000055], [-2.51435455799998, 43.14391681300003], [-2.546387, 43.08800899900007], [-2.584358102999943, 43.08275434800004], [-2.854909146999944, 43.045314002000055], [-2.944955583999956, 43.08542816800008], [-2.981634149999934, 43.180291890000035], [-3.141396, 43.16148349900004], [-3.266027943999973, 43.18772341600004], [-3.417681499999958, 43.133369499000025], [-3.421626140999933, 43.24224623500004], [-3.266109323999956, 43.25573314400003], [-3.153338, 43.35322199900003], [-2.761132801999963, 43.44162675000007], [-2.584358102999943, 43.380443994000075], [-2.51435455799998, 43.35621535800004], [-2.412847, 43.321082999000055]]], [[[-3.012977731999968, 42.99987270500003], [-3.036989499999947, 42.982185499000025], [-3.089023499999939, 43.00158299900005], [-3.066244621999942, 43.02377915400007], [-3.042080189999979, 43.02720314800007], [-3.012977731999968, 42.99987270500003]]]]}}, {"type": "Feature", "properties": {"NUTS_ID": "ES220", "LEVL_CODE": 3, "CNTR_CODE": "ES", "NAME_LATN": "Navarra", "NUTS_NAME": "Navarra", "MOUNT_TYPE": 3, "URBN_TYPE": 2, "COAST_TYPE": 3, "NAME_ENGL": "Spain", "NAME_FREN": "Espagne", "ISO3_CODE": "ESP", "SVRG_UN": "UN Member State", "CAPT": "Madrid", "EU_STAT": "T", "EFTA_STAT": "F", "CC_STAT": "F", "NAME_GERM": "Spanien"}, "geometry": {"type": "MultiPolygon", "coordinates": [[[[-1.439704986999971, 43.04835926000004], [-1.389270171999954, 43.035567858000036], [-1.310213201999943, 43.07692469800003], [-1.125289988999953, 43.02742989600006], [-0.724501, 42.92015849900008], [-0.794247895999945, 42.89773805100003], [-0.901080499999978, 42.74269099900005], [-1.124003732999938, 42.638684417000036], [-1.130172494999954, 42.63237665100007], [-1.29636284399993, 42.46244144100007], [-1.384766604999925, 42.274703783000064], [-1.384999955999945, 42.232478393000065], [-1.371598997999968, 42.02150474200005], [-1.452008331999934, 41.950971623000044], [-1.847183499999971, 42.00798799900008], [-1.753373991999979, 42.15997401800007], [-1.770753344999946, 42.232478393000065], [-1.966790218999961, 42.346385198000064], [-2.093750417999956, 42.38634877800007], [-2.420719, 42.489269499000045], [-2.437602925999954, 42.60342518300007], [-2.41559431099995, 42.63237665100007], [-2.323995329999946, 42.68583101400003], [-2.250807, 42.89569099900007], [-1.728903, 43.29608899900006], [-1.389270171999954, 43.258120391000034], [-1.389270171999954, 43.186491071000034], [-1.41898423799995, 43.12699502600003], [-1.469002688999979, 43.083069624000075], [-1.439704986999971, 43.04835926000004]]], [[[-1.037887022999939, 42.46276132400004], [-1.061684982999964, 42.41416361600005], [-1.175898221999944, 42.42710963500008], [-1.105875931999947, 42.519690740000044], [-1.037887022999939, 42.46276132400004]]]]}}, {"type": "Feature", "properties": {"NUTS_ID": "ES230", "LEVL_CODE": 3, "CNTR_CODE": "ES", "NAME_LATN": "La Rioja", "NUTS_NAME": "La Rioja", "MOUNT_TYPE": 2, "URBN_TYPE": 2, "COAST_TYPE": 3, "NAME_ENGL": "Spain", "NAME_FREN": "Espagne", "ISO3_CODE": "ESP", "SVRG_UN": "UN Member State", "CAPT": "Madrid", "EU_STAT": "T", "EFTA_STAT": "F", "CC_STAT": "F", "NAME_GERM": "Spanien"}, "geometry": {"type": "MultiPolygon", "coordinates": [[[[-2.584358102999943, 42.49178777700007], [-2.51435455799998, 42.49071047700005], [-2.420719, 42.489269499000045], [-2.093750417999956, 42.38634877800007], [-1.966790218999961, 42.346385198000064], [-1.770753344999946, 42.232478393000065], [-1.753373991999979, 42.15997401800007], [-1.847183499999971, 42.00798799900008], [-1.85653949999994, 41.96638849900006], [-2.053562347999957, 41.94178515700003], [-2.093750417999956, 41.99327606700007], [-2.169472111999937, 42.09029438300007], [-2.350124066999967, 42.13629610700008], [-2.486033198999962, 42.11362967500003], [-2.51435455799998, 42.085351166000066], [-2.584358102999943, 42.01545353700004], [-2.775578916999962, 42.08663551500007], [-2.913637499999936, 42.022838499000045], [-3.092209647999937, 42.18653390700007], [-3.064081214999931, 42.44875659000007], [-3.089329053999961, 42.53558945900005], [-3.059848786999964, 42.61750184600004], [-3.026806875999966, 42.63490180100007], [-2.858117499999935, 42.63816849900007], [-2.780276195999932, 42.61750184600004], [-2.712272997999946, 42.59944718300005], [-2.637846511999953, 42.49261092200004], [-2.584358102999943, 42.49178777700007]]]]}}, {"type": "Feature", "properties": {"NUTS_ID": "ES241", "LEVL_CODE": 3, "CNTR_CODE": "ES", "NAME_LATN": "Huesca", "NUTS_NAME": "Huesca", "MOUNT_TYPE": 2, "URBN_TYPE": 2, "COAST_TYPE": 3, "NAME_ENGL": "Spain", "NAME_FREN": "Espagne", "ISO3_CODE": "ESP", "SVRG_UN": "UN Member State", "CAPT": "Madrid", "EU_STAT": "T", "EFTA_STAT": "F", "CC_STAT": "F", "NAME_GERM": "Spanien"}, "geometry": {"type": "MultiPolygon", "coordinates": [[[[-0.690925462999928, 42.89773805100003], [-0.569423024999935, 42.81660340900004], [-0.313342, 42.849364999000045], [-0.012159521999934, 42.699866221000036], [0.261888675000023, 42.69995224100006], [0.477755500000058, 42.70001999900006], [0.660127, 42.69095249900005], [0.71631024200002, 42.63237665100007], [0.746826501000044, 42.60056083400008], [0.706591634000063, 42.48684133300003], [0.730750577000038, 42.40026066400003], [0.753377449000027, 42.31917062400004], [0.720226634000028, 42.232478393000065], [0.578687071000047, 41.87796049900004], [0.36855954400005, 41.696082095000065], [0.414922342000068, 41.55028269700006], [0.335948500000029, 41.40743249900004], [0.261888675000023, 41.40542957100007], [-0.047965787999942, 41.397049640000034], [-0.181345090999969, 41.57306275500008], [-0.487496846999932, 41.731213609000065], [-0.664898397999934, 41.93635033400005], [-0.828363326999977, 41.99837837700005], [-0.750002678999977, 42.232478393000065], [-0.745408810999947, 42.29708160000007], [-0.864459806999946, 42.298822691000055], [-0.891979178999975, 42.63237665100007], [-0.901080499999978, 42.74269099900005], [-0.794247895999945, 42.89773805100003], [-0.724501, 42.92015849900008], [-0.690925462999928, 42.89773805100003]]]]}}, {"type": "Feature", "properties": {"NUTS_ID": "ES242", "LEVL_CODE": 3, "CNTR_CODE": "ES", "NAME_LATN": "Teruel", "NUTS_NAME": "Teruel", "MOUNT_TYPE": 3, "URBN_TYPE": 3, "COAST_TYPE": 3, "NAME_ENGL": "Spain", "NAME_FREN": "Espagne", "ISO3_CODE": "ESP", "SVRG_UN": "UN Member State", "CAPT": "Madrid", "EU_STAT": "T", "EFTA_STAT": "F", "CC_STAT": "F", "NAME_GERM": "Spanien"}, "geometry": {"type": "MultiPolygon", "coordinates": [[[[0.220409500000073, 41.07142999900003], [0.25578336500007, 40.854577891000076], [0.170789500000069, 40.73283699900003], [0.059479134000071, 40.704132970000046], [-0.182900057999973, 40.767509509000035], [-0.354874731999928, 40.65654937900007], [-0.298303112999974, 40.56567575100007], [-0.316466239999954, 40.351321264000035], [-0.40543674099996, 40.26119316300003], [-0.538523877999978, 40.22952623400005], [-0.627548120999961, 40.09007229200006], [-0.843460550999964, 39.94552611800003], [-0.797643, 39.88107649900007], [-0.870223610999972, 39.87549341700003], [-0.976835282999957, 39.967973302000075], [-1.142361499999936, 39.97185549900007], [-1.165154, 40.01010899900007], [-1.15154617099995, 40.08954873700003], [-1.285601178999968, 40.17801863500006], [-1.448831499999926, 40.145358499000054], [-1.806344, 40.39824699900004], [-1.676652951999927, 40.562780658000065], [-1.555228369999952, 40.61296538500005], [-1.617433499999947, 40.943740999000056], [-1.483427872999926, 40.967790001000026], [-1.383482809999975, 41.06810794200004], [-1.315943551999965, 41.050330608000024], [-1.125289988999953, 41.13921513400004], [-0.711707818999969, 41.13424738400005], [-0.606840291999958, 41.302451090000034], [-0.528176034999944, 41.33297420100007], [0.011337191000052, 41.082466398000065], [0.220409500000073, 41.07142999900003]]]]}}, {"type": "Feature", "properties": {"NUTS_ID": "ES243", "LEVL_CODE": 3, "CNTR_CODE": "ES", "NAME_LATN": "Zaragoza", "NUTS_NAME": "Zaragoza", "MOUNT_TYPE": 2, "URBN_TYPE": 1, "COAST_TYPE": 3, "NAME_ENGL": "Spain", "NAME_FREN": "Espagne", "ISO3_CODE": "ESP", "SVRG_UN": "UN Member State", "CAPT": "Madrid", "EU_STAT": "T", "EFTA_STAT": "F", "CC_STAT": "F", "NAME_GERM": "Spanien"}, "geometry": {"type": "MultiPolygon", "coordinates": [[[[0.335948500000029, 41.40743249900004], [0.385724, 41.27883949900007], [0.261888675000023, 41.12347126000003], [0.220409500000073, 41.07142999900003], [0.011337191000052, 41.082466398000065], [-0.528176034999944, 41.33297420100007], [-0.606840291999958, 41.302451090000034], [-0.711707818999969, 41.13424738400005], [-1.125289988999953, 41.13921513400004], [-1.315943551999965, 41.050330608000024], [-1.383482809999975, 41.06810794200004], [-1.483427872999926, 40.967790001000026], [-1.617433499999947, 40.943740999000056], [-1.829529554999965, 41.09796580300008], [-2.05169, 41.146857999000076], [-2.093750417999956, 41.138024048000034], [-2.133389823999948, 41.35288356600006], [-2.083743885999979, 41.41364343500004], [-1.975738001999957, 41.423482756000055], [-1.958601195999961, 41.56778277400008], [-1.81925255799996, 41.715204139000036], [-1.85653949999994, 41.96638849900006], [-1.847183499999971, 42.00798799900008], [-1.452008331999934, 41.950971623000044], [-1.371598997999968, 42.02150474200005], [-1.384999955999945, 42.232478393000065], [-1.384766604999925, 42.274703783000064], [-1.29636284399993, 42.46244144100007], [-1.130172494999954, 42.63237665100007], [-1.124003732999938, 42.638684417000036], [-0.901080499999978, 42.74269099900005], [-0.891979178999975, 42.63237665100007], [-0.864459806999946, 42.298822691000055], [-0.745408810999947, 42.29708160000007], [-0.750002678999977, 42.232478393000065], [-0.828363326999977, 41.99837837700005], [-0.664898397999934, 41.93635033400005], [-0.487496846999932, 41.731213609000065], [-0.181345090999969, 41.57306275500008], [-0.047965787999942, 41.397049640000034], [0.261888675000023, 41.40542957100007], [0.335948500000029, 41.40743249900004]], [[-1.175898221999944, 42.42710963500008], [-1.061684982999964, 42.41416361600005], [-1.037887022999939, 42.46276132400004], [-1.105875931999947, 42.519690740000044], [-1.175898221999944, 42.42710963500008]]]]}}, {"type": "Feature", "properties": {"NUTS_ID": "ES300", "LEVL_CODE": 3, "CNTR_CODE": "ES", "NAME_LATN": "Madrid", "NUTS_NAME": "Madrid", "MOUNT_TYPE": 4, "URBN_TYPE": 1, "COAST_TYPE": 3, "NAME_ENGL": "Spain", "NAME_FREN": "Espagne", "ISO3_CODE": "ESP", "SVRG_UN": "UN Member State", "CAPT": "Madrid", "EU_STAT": "T", "EFTA_STAT": "F", "CC_STAT": "F", "NAME_GERM": "Spanien"}, "geometry": {"type": "MultiPolygon", "coordinates": [[[[-3.166232329999957, 40.29360173100008], [-3.067689, 40.15788499900003], [-3.161419499999965, 40.06489699900004], [-3.353320618999931, 40.07408370300004], [-3.696245782999938, 39.95456012100004], [-3.717891749999978, 39.99073745100003], [-3.625787030999959, 40.06064502800007], [-3.622877770999935, 40.109660732000066], [-4.049327153999968, 40.255812486000025], [-4.184813618999954, 40.28518281200007], [-4.309799705999978, 40.22763036600003], [-4.385501467999973, 40.280418643000075], [-4.503661359999967, 40.21121656300005], [-4.579076, 40.21719599900007], [-4.336673391999966, 40.42282252900003], [-4.30733325999995, 40.55691204900006], [-4.160293499999966, 40.68985349900004], [-3.983231460999946, 40.80500437000006], [-3.90360045999995, 40.95166579200003], [-3.539573, 41.16499349900005], [-3.407891569999947, 41.016737275000025], [-3.483035197999925, 40.777092664000065], [-3.215646584999945, 40.51482702100003], [-3.150104772999953, 40.40126957800004], [-3.166232329999957, 40.29360173100008]]], [[[-3.738510221999945, 39.94176474000005], [-3.819479350999927, 39.85832156600003], [-3.870460808999951, 39.90814130500007], [-3.808580206999977, 39.98341289000007], [-3.738510221999945, 39.94176474000005]]]]}}, {"type": "Feature", "properties": {"NUTS_ID": "ES411", "LEVL_CODE": 3, "CNTR_CODE": "ES", "NAME_LATN": "\u00c1vila", "NUTS_NAME": "\u00c1vila", "MOUNT_TYPE": 3, "URBN_TYPE": 3, "COAST_TYPE": 3, "NAME_ENGL": "Spain", "NAME_FREN": "Espagne", "ISO3_CODE": "ESP", "SVRG_UN": "UN Member State", "CAPT": "Madrid", "EU_STAT": "T", "EFTA_STAT": "F", "CC_STAT": "F", "NAME_GERM": "Spanien"}, "geometry": {"type": "MultiPolygon", "coordinates": [[[[-4.160293499999966, 40.68985349900004], [-4.30733325999995, 40.55691204900006], [-4.336673391999966, 40.42282252900003], [-4.579076, 40.21719599900007], [-4.728188737999972, 40.263031203000025], [-4.967335227999968, 40.12748940400007], [-5.336016499999971, 40.115855999000075], [-5.365475884999967, 40.25194102100005], [-5.55264415299996, 40.20663058800005], [-5.73760249999998, 40.29416299900004], [-5.66259321299998, 40.42677834700004], [-5.48892761899998, 40.45866295800005], [-5.366727281999943, 40.66892552200005], [-5.174662843999954, 40.808718628000065], [-5.105939090999925, 40.96964020200005], [-5.124957, 41.13205699900004], [-4.722127499999942, 41.14932999900003], [-4.408934250999948, 40.65194051800006], [-4.319344, 40.64759949900008], [-4.274165, 40.67708949900003], [-4.160293499999966, 40.68985349900004]]]]}}, {"type": "Feature", "properties": {"NUTS_ID": "ES412", "LEVL_CODE": 3, "CNTR_CODE": "ES", "NAME_LATN": "Burgos", "NUTS_NAME": "Burgos", "MOUNT_TYPE": 2, "URBN_TYPE": 2, "COAST_TYPE": 3, "NAME_ENGL": "Spain", "NAME_FREN": "Espagne", "ISO3_CODE": "ESP", "SVRG_UN": "UN Member State", "CAPT": "Madrid", "EU_STAT": "T", "EFTA_STAT": "F", "CC_STAT": "F", "NAME_GERM": "Spanien"}, "geometry": {"type": "MultiPolygon", "coordinates": [[[[-3.141396, 43.16148349900004], [-3.089023499999939, 43.00158299900005], [-3.036989499999947, 42.982185499000025], [-3.153163006999932, 42.89773805100003], [-3.203665069999943, 42.86102769900003], [-2.954997793999951, 42.70065096700006], [-2.858117499999935, 42.63816849900007], [-3.026806875999966, 42.63490180100007], [-3.059848786999964, 42.61750184600004], [-3.089329053999961, 42.53558945900005], [-3.064081214999931, 42.44875659000007], [-3.092209647999937, 42.18653390700007], [-2.913637499999936, 42.022838499000045], [-3.135910781999939, 41.84048325200007], [-3.281292696999969, 41.81955461600006], [-3.523648424999976, 41.562923365000074], [-3.572583897999948, 41.562923365000074], [-3.743316794999942, 41.48204627200005], [-3.932795390999956, 41.562923365000074], [-3.980689499999926, 41.58336649900008], [-4.040900499999964, 41.76834449900008], [-4.066515633999927, 41.839708554000026], [-3.970240891999936, 41.93642487300008], [-4.003011540999978, 42.03547006800005], [-4.202766814999961, 42.155757633000064], [-4.236245078999957, 42.232478393000065], [-4.314358045999938, 42.41148666600003], [-4.283317832999955, 42.44875659000007], [-4.259888666999927, 42.67305851200007], [-4.081359, 42.76141749900006], [-4.04593, 42.76656699900008], [-3.99967, 42.76893249900007], [-3.840879884999936, 42.81180796800004], [-3.902027663999945, 42.89773805100003], [-3.941441698999938, 42.95312602000007], [-3.880481122999925, 43.031155209000076], [-3.651123106999933, 43.15403063800005], [-3.417681499999958, 43.133369499000025], [-3.266027943999973, 43.18772341600004], [-3.141396, 43.16148349900004]]], [[[-2.584358102999943, 42.69613746600004], [-2.594263810999962, 42.65322083800004], [-2.766934270999968, 42.667090890000054], [-2.865580147999935, 42.739582358000064], [-2.833219540999949, 42.794856949000064], [-2.73166664699994, 42.79256393500003], [-2.584358102999943, 42.738031945000046], [-2.575449509999942, 42.734734082000045], [-2.584358102999943, 42.69613746600004]]]]}}, {"type": "Feature", "properties": {"NUTS_ID": "ES413", "LEVL_CODE": 3, "CNTR_CODE": "ES", "NAME_LATN": "Le\u00f3n", "NUTS_NAME": "Le\u00f3n", "MOUNT_TYPE": 2, "URBN_TYPE": 2, "COAST_TYPE": 3, "NAME_ENGL": "Spain", "NAME_FREN": "Espagne", "ISO3_CODE": "ESP", "SVRG_UN": "UN Member State", "CAPT": "Madrid", "EU_STAT": "T", "EFTA_STAT": "F", "CC_STAT": "F", "NAME_GERM": "Spanien"}, "geometry": {"type": "MultiPolygon", "coordinates": [[[[-4.841038499999968, 43.180709499000045], [-4.737023, 43.02092349900005], [-4.827749900999947, 42.89773805100003], [-4.898366813999928, 42.801857160000054], [-4.900025944999925, 42.70065096700006], [-4.901389054999925, 42.61750184600004], [-4.90415539199995, 42.44875659000007], [-5.002154499999961, 42.289104499000075], [-5.24175491099993, 42.232478393000065], [-5.372711525999932, 42.20152868400004], [-5.376311499999929, 42.041457999000045], [-5.421605499999941, 42.03066649900006], [-5.473459757999933, 42.04926017500003], [-5.520905499999969, 42.09712999900006], [-6.34427253399997, 42.202783846000045], [-6.601365367999961, 42.232478393000065], [-6.784308, 42.25360849900005], [-6.752502788999948, 42.345616617000076], [-6.821880466999971, 42.44875659000007], [-6.841968564999945, 42.47862045900007], [-7.076834, 42.50812399900008], [-7.010484398999949, 42.686152357000026], [-6.824167, 42.915012499000056], [-6.525656846999937, 42.92310835600006], [-6.375875917999963, 43.038569291000044], [-6.292144823999934, 43.03179708300007], [-6.019390743999963, 43.06698873700003], [-5.811156977999929, 42.97034104100004], [-5.696574450999947, 43.03491689100008], [-5.143378884999947, 43.09814691200006], [-4.92143402399995, 43.21973639500004], [-4.841038499999968, 43.180709499000045]]]]}}, {"type": "Feature", "properties": {"NUTS_ID": "ES414", "LEVL_CODE": 3, "CNTR_CODE": "ES", "NAME_LATN": "Palencia", "NUTS_NAME": "Palencia", "MOUNT_TYPE": 4, "URBN_TYPE": 2, "COAST_TYPE": 3, "NAME_ENGL": "Spain", "NAME_FREN": "Espagne", "ISO3_CODE": "ESP", "SVRG_UN": "UN Member State", "CAPT": "Madrid", "EU_STAT": "T", "EFTA_STAT": "F", "CC_STAT": "F", "NAME_GERM": "Spanien"}, "geometry": {"type": "MultiPolygon", "coordinates": [[[[-3.970240891999936, 41.93642487300008], [-4.066515633999927, 41.839708554000026], [-4.040900499999964, 41.76834449900008], [-4.472966693999979, 41.780081161000055], [-4.659315140999979, 41.88124026400004], [-4.78451346199995, 41.83665153600003], [-4.974476206999952, 41.925466431000075], [-4.918706826999937, 42.103171461000045], [-5.01213045999998, 42.17059563000004], [-5.006921229999932, 42.232478393000065], [-5.002154499999961, 42.289104499000075], [-4.90415539199995, 42.44875659000007], [-4.901389054999925, 42.61750184600004], [-4.900025944999925, 42.70065096700006], [-4.898366813999928, 42.801857160000054], [-4.827749900999947, 42.89773805100003], [-4.737023, 43.02092349900005], [-4.425902169999972, 43.041482993000045], [-4.252315652999926, 42.94409445200006], [-4.223924193999949, 42.89773805100003], [-4.16520094699996, 42.801857160000054], [-4.081359, 42.76141749900006], [-4.259888666999927, 42.67305851200007], [-4.283317832999955, 42.44875659000007], [-4.314358045999938, 42.41148666600003], [-4.236245078999957, 42.232478393000065], [-4.202766814999961, 42.155757633000064], [-4.003011540999978, 42.03547006800005], [-3.970240891999936, 41.93642487300008]]], [[[-3.99967, 42.76893249900007], [-4.04593, 42.76656699900008], [-4.030072717999928, 42.801857160000054], [-3.99748352499995, 42.801857160000054], [-3.99967, 42.76893249900007]]]]}}, {"type": "Feature", "properties": {"NUTS_ID": "ES415", "LEVL_CODE": 3, "CNTR_CODE": "ES", "NAME_LATN": "Salamanca", "NUTS_NAME": "Salamanca", "MOUNT_TYPE": 4, "URBN_TYPE": 2, "COAST_TYPE": 3, "NAME_ENGL": "Spain", "NAME_FREN": "Espagne", "ISO3_CODE": "ESP", "SVRG_UN": "UN Member State", "CAPT": "Madrid", "EU_STAT": "T", "EFTA_STAT": "F", "CC_STAT": "F", "NAME_GERM": "Spanien"}, "geometry": {"type": "MultiPolygon", "coordinates": [[[[-5.288771, 41.182006999000066], [-5.124957, 41.13205699900004], [-5.105939090999925, 40.96964020200005], [-5.174662843999954, 40.808718628000065], [-5.366727281999943, 40.66892552200005], [-5.48892761899998, 40.45866295800005], [-5.66259321299998, 40.42677834700004], [-5.73760249999998, 40.29416299900004], [-5.810593062999942, 40.33987527700003], [-5.971620005999966, 40.29929590800003], [-6.197747024999956, 40.46952660800008], [-6.34427253399997, 40.442105595000044], [-6.608746571999973, 40.276987967000025], [-6.865144, 40.27069449900006], [-6.800723395999967, 40.36111742300005], [-6.812963117999971, 40.83497444300008], [-6.929903499999966, 41.02946649900008], [-6.808964068999956, 41.05535228800005], [-6.689786, 41.20524149900007], [-6.479713, 41.29437999900006], [-6.34427253399997, 41.27206292200003], [-5.956336057999977, 41.16298025000003], [-5.877533899999946, 41.22808736400003], [-5.67075650299995, 41.235871340000074], [-5.347164525999972, 41.13836489800008], [-5.288771, 41.182006999000066]]]]}}, {"type": "Feature", "properties": {"NUTS_ID": "ES416", "LEVL_CODE": 3, "CNTR_CODE": "ES", "NAME_LATN": "Segovia", "NUTS_NAME": "Segovia", "MOUNT_TYPE": 4, "URBN_TYPE": 3, "COAST_TYPE": 3, "NAME_ENGL": "Spain", "NAME_FREN": "Espagne", "ISO3_CODE": "ESP", "SVRG_UN": "UN Member State", "CAPT": "Madrid", "EU_STAT": "T", "EFTA_STAT": "F", "CC_STAT": "F", "NAME_GERM": "Spanien"}, "geometry": {"type": "MultiPolygon", "coordinates": [[[[-3.523648424999976, 41.562923365000074], [-3.207373, 41.30424499900005], [-3.539573, 41.16499349900005], [-3.90360045999995, 40.95166579200003], [-3.983231460999946, 40.80500437000006], [-4.160293499999966, 40.68985349900004], [-4.274165, 40.67708949900003], [-4.319344, 40.64759949900008], [-4.408934250999948, 40.65194051800006], [-4.722127499999942, 41.14932999900003], [-4.458350774999928, 41.40922348500004], [-4.089268062999963, 41.49470073300006], [-3.980689499999926, 41.58336649900008], [-3.932795390999956, 41.562923365000074], [-3.743316794999942, 41.48204627200005], [-3.572583897999948, 41.562923365000074], [-3.523648424999976, 41.562923365000074]]]]}}, {"type": "Feature", "properties": {"NUTS_ID": "ES417", "LEVL_CODE": 3, "CNTR_CODE": "ES", "NAME_LATN": "Soria", "NUTS_NAME": "Soria", "MOUNT_TYPE": 4, "URBN_TYPE": 3, "COAST_TYPE": 3, "NAME_ENGL": "Spain", "NAME_FREN": "Espagne", "ISO3_CODE": "ESP", "SVRG_UN": "UN Member State", "CAPT": "Madrid", "EU_STAT": "T", "EFTA_STAT": "F", "CC_STAT": "F", "NAME_GERM": "Spanien"}, "geometry": {"type": "MultiPolygon", "coordinates": [[[[-1.85653949999994, 41.96638849900006], [-1.81925255799996, 41.715204139000036], [-1.958601195999961, 41.56778277400008], [-1.975738001999957, 41.423482756000055], [-2.083743885999979, 41.41364343500004], [-2.133389823999948, 41.35288356600006], [-2.093750417999956, 41.138024048000034], [-2.40879401199993, 41.07185543500003], [-2.51435455799998, 41.14030453400005], [-2.584358102999943, 41.185697247000064], [-2.700397910999925, 41.260941460000026], [-3.207373, 41.30424499900005], [-3.523648424999976, 41.562923365000074], [-3.281292696999969, 41.81955461600006], [-3.135910781999939, 41.84048325200007], [-2.913637499999936, 42.022838499000045], [-2.775578916999962, 42.08663551500007], [-2.584358102999943, 42.01545353700004], [-2.51435455799998, 42.085351166000066], [-2.486033198999962, 42.11362967500003], [-2.350124066999967, 42.13629610700008], [-2.169472111999937, 42.09029438300007], [-2.093750417999956, 41.99327606700007], [-2.053562347999957, 41.94178515700003], [-1.85653949999994, 41.96638849900006]]]]}}, {"type": "Feature", "properties": {"NUTS_ID": "ES418", "LEVL_CODE": 3, "CNTR_CODE": "ES", "NAME_LATN": "Valladolid", "NUTS_NAME": "Valladolid", "MOUNT_TYPE": 4, "URBN_TYPE": 2, "COAST_TYPE": 3, "NAME_ENGL": "Spain", "NAME_FREN": "Espagne", "ISO3_CODE": "ESP", "SVRG_UN": "UN Member State", "CAPT": "Madrid", "EU_STAT": "T", "EFTA_STAT": "F", "CC_STAT": "F", "NAME_GERM": "Spanien"}, "geometry": {"type": "MultiPolygon", "coordinates": [[[[-4.974476206999952, 41.925466431000075], [-4.78451346199995, 41.83665153600003], [-4.659315140999979, 41.88124026400004], [-4.472966693999979, 41.780081161000055], [-4.040900499999964, 41.76834449900008], [-3.980689499999926, 41.58336649900008], [-4.089268062999963, 41.49470073300006], [-4.458350774999928, 41.40922348500004], [-4.722127499999942, 41.14932999900003], [-5.124957, 41.13205699900004], [-5.288771, 41.182006999000066], [-5.325978474999943, 41.42806729200004], [-5.279891731999953, 41.562923365000074], [-5.363025250999954, 41.73797782200006], [-5.301006331999929, 41.96422241400006], [-5.376311499999929, 42.041457999000045], [-5.372711525999932, 42.20152868400004], [-5.24175491099993, 42.232478393000065], [-5.002154499999961, 42.289104499000075], [-5.006921229999932, 42.232478393000065], [-5.01213045999998, 42.17059563000004], [-4.918706826999937, 42.103171461000045], [-4.974476206999952, 41.925466431000075]]], [[[-5.421605499999941, 42.03066649900006], [-5.450160015999927, 41.99563302900003], [-5.520905499999969, 42.09712999900006], [-5.473459757999933, 42.04926017500003], [-5.421605499999941, 42.03066649900006]]]]}}, {"type": "Feature", "properties": {"NUTS_ID": "ES419", "LEVL_CODE": 3, "CNTR_CODE": "ES", "NAME_LATN": "Zamora", "NUTS_NAME": "Zamora", "MOUNT_TYPE": 4, "URBN_TYPE": 3, "COAST_TYPE": 3, "NAME_ENGL": "Spain", "NAME_FREN": "Espagne", "ISO3_CODE": "ESP", "SVRG_UN": "UN Member State", "CAPT": "Madrid", "EU_STAT": "T", "EFTA_STAT": "F", "CC_STAT": "F", "NAME_GERM": "Spanien"}, "geometry": {"type": "MultiPolygon", "coordinates": [[[[-5.520905499999969, 42.09712999900006], [-5.450160015999927, 41.99563302900003], [-5.421605499999941, 42.03066649900006], [-5.376311499999929, 42.041457999000045], [-5.301006331999929, 41.96422241400006], [-5.363025250999954, 41.73797782200006], [-5.279891731999953, 41.562923365000074], [-5.325978474999943, 41.42806729200004], [-5.288771, 41.182006999000066], [-5.347164525999972, 41.13836489800008], [-5.67075650299995, 41.235871340000074], [-5.877533899999946, 41.22808736400003], [-5.956336057999977, 41.16298025000003], [-6.34427253399997, 41.27206292200003], [-6.479713, 41.29437999900006], [-6.444774729999949, 41.30352172700003], [-6.415567428999964, 41.344960857000046], [-6.34427253399997, 41.38045182800005], [-6.206086998999979, 41.562923365000074], [-6.309195422999949, 41.65699488000007], [-6.519029273999934, 41.70671393500004], [-6.603419268999971, 41.93173649800008], [-6.985800499999925, 41.97144699900008], [-6.968189913999936, 42.13342540700006], [-6.816637374999971, 42.232478393000065], [-6.784308, 42.25360849900005], [-6.601365367999961, 42.232478393000065], [-6.34427253399997, 42.202783846000045], [-5.520905499999969, 42.09712999900006]]]]}}, {"type": "Feature", "properties": {"NUTS_ID": "ES421", "LEVL_CODE": 3, "CNTR_CODE": "ES", "NAME_LATN": "Albacete", "NUTS_NAME": "Albacete", "MOUNT_TYPE": 4, "URBN_TYPE": 2, "COAST_TYPE": 3, "NAME_ENGL": "Spain", "NAME_FREN": "Espagne", "ISO3_CODE": "ESP", "SVRG_UN": "UN Member State", "CAPT": "Madrid", "EU_STAT": "T", "EFTA_STAT": "F", "CC_STAT": "F", "NAME_GERM": "Spanien"}, "geometry": {"type": "MultiPolygon", "coordinates": [[[[-0.928884499999924, 38.783839999000065], [-0.940015948999928, 38.69739639000005], [-1.02687, 38.65550949900006], [-1.125289988999953, 38.71054637800006], [-1.179208327999959, 38.740697744000045], [-1.315943551999965, 38.69259993600008], [-1.434000093999941, 38.64768911300007], [-1.530953816999954, 38.34596721100007], [-1.639295462999939, 38.31444245900008], [-1.756662795999944, 38.365026698000065], [-2.049718952999967, 38.28956276800005], [-2.093750417999956, 38.24980652200003], [-2.341602, 38.02601999900003], [-2.51435455799998, 38.07388799300003], [-2.551274, 38.08411799900006], [-2.51435455799998, 38.13144134400005], [-2.447911474999955, 38.22355501100003], [-2.491088833999925, 38.37250489400003], [-2.51435455799998, 38.40214304300008], [-2.584358102999943, 38.47658698200007], [-2.762069, 38.53277949900007], [-2.65155029899995, 38.71416014000005], [-2.856056103999947, 38.938528973000075], [-2.74224849999996, 39.31818399900004], [-2.584358102999943, 39.32423273000006], [-2.51435455799998, 39.32691454400003], [-2.228940355999953, 39.25129381200003], [-2.020374540999967, 39.32959254600007], [-1.763489178999976, 39.31246488900007], [-1.505146499999967, 39.41801449900004], [-1.195562407999944, 39.28227607400004], [-1.218018067999935, 39.04907153900007], [-1.125289988999953, 38.94007386800007], [-0.955167963999941, 38.924093447000075], [-0.928884499999924, 38.783839999000065]]]]}}, {"type": "Feature", "properties": {"NUTS_ID": "ES422", "LEVL_CODE": 3, "CNTR_CODE": "ES", "NAME_LATN": "Ciudad Real", "NUTS_NAME": "Ciudad Real", "MOUNT_TYPE": 4, "URBN_TYPE": 2, "COAST_TYPE": 3, "NAME_ENGL": "Spain", "NAME_FREN": "Espagne", "ISO3_CODE": "ESP", "SVRG_UN": "UN Member State", "CAPT": "Madrid", "EU_STAT": "T", "EFTA_STAT": "F", "CC_STAT": "F", "NAME_GERM": "Spanien"}, "geometry": {"type": "MultiPolygon", "coordinates": [[[[-4.053996323999968, 39.51768659700008], [-4.128893407999954, 39.37652278100006], [-3.851481138999929, 39.27004666500005], [-3.561398747999931, 39.30625747600004], [-3.242561809999927, 39.47815390100004], [-2.931376499999942, 39.47151949900007], [-2.74224849999996, 39.31818399900004], [-2.856056103999947, 38.938528973000075], [-2.65155029899995, 38.71416014000005], [-2.762069, 38.53277949900007], [-2.893074572999978, 38.46213046100007], [-3.348006253999927, 38.46674064000007], [-3.460458978999952, 38.410879496000064], [-4.214013387999955, 38.39396172600004], [-4.268895, 38.34721299900008], [-5.046996, 38.729133499000056], [-4.850005591999945, 38.90782192200004], [-4.944213275999971, 39.03994563300006], [-4.728304631999947, 39.22248442100005], [-4.687733, 39.45033649900006], [-4.530253712999979, 39.52004109200004], [-4.241194100999962, 39.492469838000034], [-4.081751837999946, 39.57294462100003], [-4.053996323999968, 39.51768659700008]]], [[[-4.755411, 39.415759999000045], [-4.940783499999952, 39.39516449900003], [-4.844964951999941, 39.53990016100005], [-4.773685645999933, 39.50331161300005], [-4.755411, 39.415759999000045]]]]}}, {"type": "Feature", "properties": {"NUTS_ID": "ES423", "LEVL_CODE": 3, "CNTR_CODE": "ES", "NAME_LATN": "Cuenca", "NUTS_NAME": "Cuenca", "MOUNT_TYPE": 4, "URBN_TYPE": 3, "COAST_TYPE": 3, "NAME_ENGL": "Spain", "NAME_FREN": "Espagne", "ISO3_CODE": "ESP", "SVRG_UN": "UN Member State", "CAPT": "Madrid", "EU_STAT": "T", "EFTA_STAT": "F", "CC_STAT": "F", "NAME_GERM": "Spanien"}, "geometry": {"type": "MultiPolygon", "coordinates": [[[[-1.806344, 40.39824699900004], [-1.448831499999926, 40.145358499000054], [-1.381719259999954, 40.03442853000007], [-1.315943551999965, 40.01212981500004], [-1.165154, 40.01010899900007], [-1.142361499999936, 39.97185549900007], [-1.206563410999934, 39.94552611800003], [-1.21867122499998, 39.81642640000007], [-1.315943551999965, 39.671361114000035], [-1.49228517499995, 39.55638430300007], [-1.505146499999967, 39.41801449900004], [-1.763489178999976, 39.31246488900007], [-2.020374540999967, 39.32959254600007], [-2.228940355999953, 39.25129381200003], [-2.51435455799998, 39.32691454400003], [-2.584358102999943, 39.32423273000006], [-2.74224849999996, 39.31818399900004], [-2.931376499999942, 39.47151949900007], [-2.920113430999947, 39.635669273000076], [-3.107129236999981, 39.87597380100004], [-3.097987444999944, 39.94552611800003], [-3.161419499999965, 40.06489699900004], [-3.067689, 40.15788499900003], [-2.874605527999961, 40.194943813000066], [-2.768046449999929, 40.400080684000045], [-2.584358102999943, 40.44375798300007], [-2.51435455799998, 40.46040338300003], [-2.382682896999938, 40.594383719000064], [-2.254867880999939, 40.62905075200007], [-2.093750417999956, 40.60695691400008], [-1.944552076999969, 40.58649753000003], [-1.806344, 40.39824699900004]]]]}}, {"type": "Feature", "properties": {"NUTS_ID": "ES424", "LEVL_CODE": 3, "CNTR_CODE": "ES", "NAME_LATN": "Guadalajara", "NUTS_NAME": "Guadalajara", "MOUNT_TYPE": 3, "URBN_TYPE": 2, "COAST_TYPE": 3, "NAME_ENGL": "Spain", "NAME_FREN": "Espagne", "ISO3_CODE": "ESP", "SVRG_UN": "UN Member State", "CAPT": "Madrid", "EU_STAT": "T", "EFTA_STAT": "F", "CC_STAT": "F", "NAME_GERM": "Spanien"}, "geometry": {"type": "MultiPolygon", "coordinates": [[[[-2.51435455799998, 41.14030453400005], [-2.40879401199993, 41.07185543500003], [-2.093750417999956, 41.138024048000034], [-2.05169, 41.146857999000076], [-1.829529554999965, 41.09796580300008], [-1.617433499999947, 40.943740999000056], [-1.555228369999952, 40.61296538500005], [-1.676652951999927, 40.562780658000065], [-1.806344, 40.39824699900004], [-1.944552076999969, 40.58649753000003], [-2.093750417999956, 40.60695691400008], [-2.254867880999939, 40.62905075200007], [-2.382682896999938, 40.594383719000064], [-2.51435455799998, 40.46040338300003], [-2.584358102999943, 40.44375798300007], [-2.768046449999929, 40.400080684000045], [-2.874605527999961, 40.194943813000066], [-3.067689, 40.15788499900003], [-3.166232329999957, 40.29360173100008], [-3.150104772999953, 40.40126957800004], [-3.215646584999945, 40.51482702100003], [-3.483035197999925, 40.777092664000065], [-3.407891569999947, 41.016737275000025], [-3.539573, 41.16499349900005], [-3.207373, 41.30424499900005], [-2.700397910999925, 41.260941460000026], [-2.584358102999943, 41.185697247000064], [-2.51435455799998, 41.14030453400005]]]]}}, {"type": "Feature", "properties": {"NUTS_ID": "ES425", "LEVL_CODE": 3, "CNTR_CODE": "ES", "NAME_LATN": "Toledo", "NUTS_NAME": "Toledo", "MOUNT_TYPE": 4, "URBN_TYPE": 2, "COAST_TYPE": 3, "NAME_ENGL": "Spain", "NAME_FREN": "Espagne", "ISO3_CODE": "ESP", "SVRG_UN": "UN Member State", "CAPT": "Madrid", "EU_STAT": "T", "EFTA_STAT": "F", "CC_STAT": "F", "NAME_GERM": "Spanien"}, "geometry": {"type": "MultiPolygon", "coordinates": [[[[-3.161419499999965, 40.06489699900004], [-3.097987444999944, 39.94552611800003], [-3.107129236999981, 39.87597380100004], [-2.920113430999947, 39.635669273000076], [-2.931376499999942, 39.47151949900007], [-3.242561809999927, 39.47815390100004], [-3.561398747999931, 39.30625747600004], [-3.851481138999929, 39.27004666500005], [-4.128893407999954, 39.37652278100006], [-4.053996323999968, 39.51768659700008], [-4.081751837999946, 39.57294462100003], [-4.241194100999962, 39.492469838000034], [-4.530253712999979, 39.52004109200004], [-4.687733, 39.45033649900006], [-4.755411, 39.415759999000045], [-4.773685645999933, 39.50331161300005], [-4.844964951999941, 39.53990016100005], [-4.940783499999952, 39.39516449900003], [-4.952554499999962, 39.395038499000066], [-5.184073914999942, 39.59249315100004], [-5.163410554999928, 39.77069068700007], [-5.287461838999945, 39.769076479000034], [-5.382560568999963, 39.94552611800003], [-5.336016499999971, 40.115855999000075], [-4.967335227999968, 40.12748940400007], [-4.728188737999972, 40.263031203000025], [-4.579076, 40.21719599900007], [-4.503661359999967, 40.21121656300005], [-4.385501467999973, 40.280418643000075], [-4.309799705999978, 40.22763036600003], [-4.184813618999954, 40.28518281200007], [-4.049327153999968, 40.255812486000025], [-3.622877770999935, 40.109660732000066], [-3.625787030999959, 40.06064502800007], [-3.717891749999978, 39.99073745100003], [-3.696245782999938, 39.95456012100004], [-3.353320618999931, 40.07408370300004], [-3.161419499999965, 40.06489699900004]], [[-3.870460808999951, 39.90814130500007], [-3.819479350999927, 39.85832156600003], [-3.738510221999945, 39.94176474000005], [-3.808580206999977, 39.98341289000007], [-3.870460808999951, 39.90814130500007]]]]}}, {"type": "Feature", "properties": {"NUTS_ID": "ES431", "LEVL_CODE": 3, "CNTR_CODE": "ES", "NAME_LATN": "Badajoz", "NUTS_NAME": "Badajoz", "MOUNT_TYPE": 4, "URBN_TYPE": 2, "COAST_TYPE": 3, "NAME_ENGL": "Spain", "NAME_FREN": "Espagne", "ISO3_CODE": "ESP", "SVRG_UN": "UN Member State", "CAPT": "Madrid", "EU_STAT": "T", "EFTA_STAT": "F", "CC_STAT": "F", "NAME_GERM": "Spanien"}, "geometry": {"type": "MultiPolygon", "coordinates": [[[[-5.046996, 38.729133499000056], [-5.163197674999935, 38.71171944300005], [-5.547784471999933, 38.436986958000034], [-5.534566687999927, 38.214601035000044], [-5.584845499999972, 38.13175199900007], [-5.694235317999926, 38.103283340000075], [-5.717348002999927, 38.18213302200007], [-5.820868460999975, 38.17092030800006], [-5.964463952999949, 38.00907635800007], [-6.180307499999969, 37.94107799900007], [-6.34427253399997, 38.002142106000065], [-6.561083878999966, 38.02828107700003], [-6.931738499999938, 38.20837799900005], [-7.107952499999953, 38.18812149900003], [-7.308408654999937, 38.45817209200004], [-7.203135, 38.751017499000056], [-7.06796765699994, 38.84592828900003], [-6.967525686999977, 39.03183290000004], [-7.126447189999965, 39.12279748800006], [-7.231467, 39.27843099900008], [-6.968894451999972, 39.40971811700007], [-6.78625425499996, 39.36317318600004], [-6.742473944999972, 39.191410620000056], [-6.34427253399997, 39.182593258000054], [-6.155597944999954, 39.04932128300004], [-6.028880267999966, 39.10746309800004], [-5.979581392999933, 39.06955835000008], [-5.652283588999978, 39.09480571700004], [-5.571613271999979, 39.19316158200007], [-5.398723437999934, 39.179815845000064], [-5.326673249999942, 39.31516119200006], [-4.952554499999962, 39.395038499000066], [-4.940783499999952, 39.39516449900003], [-4.755411, 39.415759999000045], [-4.687733, 39.45033649900006], [-4.728304631999947, 39.22248442100005], [-4.944213275999971, 39.03994563300006], [-4.850005591999945, 38.90782192200004], [-5.046996, 38.729133499000056]]]]}}, {"type": "Feature", "properties": {"NUTS_ID": "ES432", "LEVL_CODE": 3, "CNTR_CODE": "ES", "NAME_LATN": "C\u00e1ceres", "NUTS_NAME": "C\u00e1ceres", "MOUNT_TYPE": 4, "URBN_TYPE": 2, "COAST_TYPE": 3, "NAME_ENGL": "Spain", "NAME_FREN": "Espagne", "ISO3_CODE": "ESP", "SVRG_UN": "UN Member State", "CAPT": "Madrid", "EU_STAT": "T", "EFTA_STAT": "F", "CC_STAT": "F", "NAME_GERM": "Spanien"}, "geometry": {"type": "MultiPolygon", "coordinates": [[[[-5.73760249999998, 40.29416299900004], [-5.55264415299996, 40.20663058800005], [-5.365475884999967, 40.25194102100005], [-5.336016499999971, 40.115855999000075], [-5.382560568999963, 39.94552611800003], [-5.287461838999945, 39.769076479000034], [-5.163410554999928, 39.77069068700007], [-5.184073914999942, 39.59249315100004], [-4.952554499999962, 39.395038499000066], [-5.326673249999942, 39.31516119200006], [-5.398723437999934, 39.179815845000064], [-5.571613271999979, 39.19316158200007], [-5.652283588999978, 39.09480571700004], [-5.979581392999933, 39.06955835000008], [-6.028880267999966, 39.10746309800004], [-6.155597944999954, 39.04932128300004], [-6.34427253399997, 39.182593258000054], [-6.742473944999972, 39.191410620000056], [-6.78625425499996, 39.36317318600004], [-6.968894451999972, 39.40971811700007], [-7.231467, 39.27843099900008], [-7.314887160999945, 39.45588890500005], [-7.542929, 39.662814999000034], [-7.023889292999968, 39.68647085900005], [-6.878291647999959, 39.97527314900003], [-7.005429124999978, 40.160101448000034], [-6.95129849999995, 40.257445999000026], [-6.865144, 40.27069449900006], [-6.608746571999973, 40.276987967000025], [-6.34427253399997, 40.442105595000044], [-6.197747024999956, 40.46952660800008], [-5.971620005999966, 40.29929590800003], [-5.810593062999942, 40.33987527700003], [-5.73760249999998, 40.29416299900004]]]]}}, {"type": "Feature", "properties": {"NUTS_ID": "ES511", "LEVL_CODE": 3, "CNTR_CODE": "ES", "NAME_LATN": "Barcelona", "NUTS_NAME": "Barcelona", "MOUNT_TYPE": 2, "URBN_TYPE": 1, "COAST_TYPE": 1, "NAME_ENGL": "Spain", "NAME_FREN": "Espagne", "ISO3_CODE": "ESP", "SVRG_UN": "UN Member State", "CAPT": "Madrid", "EU_STAT": "T", "EFTA_STAT": "F", "CC_STAT": "F", "NAME_GERM": "Spanien"}, "geometry": {"type": "MultiPolygon", "coordinates": [[[[2.778513, 41.64880749900004], [2.706688548000045, 41.62147651300006], [2.296069105000072, 41.46522562500007], [2.083208658000046, 41.29405713600005], [1.645323500000075, 41.195621499000026], [1.392940500000066, 41.57508099900008], [1.410655482000038, 41.66825522800008], [1.42690886500003, 41.75374199100003], [1.629594366000049, 41.878525866000075], [1.699109932000056, 42.232478393000065], [1.687728063000066, 42.26751484700003], [1.842707, 42.306377499000064], [2.017775537000034, 42.285598495000045], [2.118088372000045, 42.15907729500003], [2.41799949600005, 42.07387870900004], [2.454986873000053, 41.95164280200004], [2.378034841000044, 41.82589498700003], [2.542418108000049, 41.74027068700008], [2.727242286000035, 41.72528145900003], [2.778513, 41.64880749900004]]]]}}, {"type": "Feature", "properties": {"NUTS_ID": "ES512", "LEVL_CODE": 3, "CNTR_CODE": "ES", "NAME_LATN": "Girona", "NUTS_NAME": "Girona", "MOUNT_TYPE": 2, "URBN_TYPE": 2, "COAST_TYPE": 1, "NAME_ENGL": "Spain", "NAME_FREN": "Espagne", "ISO3_CODE": "ESP", "SVRG_UN": "UN Member State", "CAPT": "Madrid", "EU_STAT": "T", "EFTA_STAT": "F", "CC_STAT": "F", "NAME_GERM": "Spanien"}, "geometry": {"type": "MultiPolygon", "coordinates": [[[[3.174804, 42.43537499900003], [3.201092440000025, 42.40026066400003], [3.280661957000063, 42.29341673500005], [3.155696998000053, 42.219320777000064], [3.12457342600004, 42.20086655700004], [3.190097248000029, 41.98488940400006], [3.209529821000046, 41.92083648700003], [2.809326990000045, 41.66825522800008], [2.778513, 41.64880749900004], [2.727242286000035, 41.72528145900003], [2.542418108000049, 41.74027068700008], [2.378034841000044, 41.82589498700003], [2.454986873000053, 41.95164280200004], [2.41799949600005, 42.07387870900004], [2.118088372000045, 42.15907729500003], [2.017775537000034, 42.285598495000045], [1.842707, 42.306377499000064], [1.786335767000025, 42.40026066400003], [1.731011, 42.49240099900004], [1.916394702000048, 42.45389854900003], [1.985797006000041, 42.40026066400003], [2.035217310000064, 42.36206595700003], [2.144528305000051, 42.40026066400003], [2.234820443000046, 42.43180993100003], [2.296069105000072, 42.41462544500007], [2.347267821000059, 42.40026066400003], [2.553363236000052, 42.34243664600007], [2.714835048000054, 42.40026066400003], [2.88351937300007, 42.460667526000066], [3.174804, 42.43537499900003]]]]}}, {"type": "Feature", "properties": {"NUTS_ID": "ES513", "LEVL_CODE": 3, "CNTR_CODE": "ES", "NAME_LATN": "Lleida", "NUTS_NAME": "Lleida", "MOUNT_TYPE": 2, "URBN_TYPE": 2, "COAST_TYPE": 3, "NAME_ENGL": "Spain", "NAME_FREN": "Espagne", "ISO3_CODE": "ESP", "SVRG_UN": "UN Member State", "CAPT": "Madrid", "EU_STAT": "T", "EFTA_STAT": "F", "CC_STAT": "F", "NAME_GERM": "Spanien"}, "geometry": {"type": "MultiPolygon", "coordinates": [[[[0.858215, 42.82574099900006], [0.906448365000074, 42.81385808600004], [1.322649105000039, 42.71132165300003], [1.410587035000049, 42.63237665100007], [1.442566, 42.60366799900004], [1.46852430000007, 42.443990436000036], [1.725801, 42.50440199900004], [1.731011, 42.49240099900004], [1.786335767000025, 42.40026066400003], [1.842707, 42.306377499000064], [1.687728063000066, 42.26751484700003], [1.699109932000056, 42.232478393000065], [1.629594366000049, 41.878525866000075], [1.42690886500003, 41.75374199100003], [1.410655482000038, 41.66825522800008], [1.392940500000066, 41.57508099900008], [1.202567823000038, 41.544789155000046], [0.906448365000074, 41.34966295900006], [0.385724, 41.27883949900007], [0.335948500000029, 41.40743249900004], [0.414922342000068, 41.55028269700006], [0.36855954400005, 41.696082095000065], [0.578687071000047, 41.87796049900004], [0.720226634000028, 42.232478393000065], [0.753377449000027, 42.31917062400004], [0.730750577000038, 42.40026066400003], [0.706591634000063, 42.48684133300003], [0.746826501000044, 42.60056083400008], [0.71631024200002, 42.63237665100007], [0.660127, 42.69095249900005], [0.670039742000029, 42.801857160000054], [0.714541826000072, 42.85360194300006], [0.858215, 42.82574099900006]]]]}}, {"type": "Feature", "properties": {"NUTS_ID": "ES514", "LEVL_CODE": 3, "CNTR_CODE": "ES", "NAME_LATN": "Tarragona", "NUTS_NAME": "Tarragona", "MOUNT_TYPE": 2, "URBN_TYPE": 2, "COAST_TYPE": 1, "NAME_ENGL": "Spain", "NAME_FREN": "Espagne", "ISO3_CODE": "ESP", "SVRG_UN": "UN Member State", "CAPT": "Madrid", "EU_STAT": "T", "EFTA_STAT": "F", "CC_STAT": "F", "NAME_GERM": "Spanien"}, "geometry": {"type": "MultiPolygon", "coordinates": [[[[1.645323500000075, 41.195621499000026], [0.978029677000052, 41.02959298600007], [0.906448365000074, 40.96783451400006], [0.726115364000066, 40.81224794600007], [0.836574892000044, 40.683980950000034], [0.60955844700004, 40.61346892100005], [0.515238500000066, 40.52291849900007], [0.261888675000023, 40.67731817900005], [0.170789500000069, 40.73283699900003], [0.25578336500007, 40.854577891000076], [0.220409500000073, 41.07142999900003], [0.261888675000023, 41.12347126000003], [0.385724, 41.27883949900007], [0.906448365000074, 41.34966295900006], [1.202567823000038, 41.544789155000046], [1.392940500000066, 41.57508099900008], [1.645323500000075, 41.195621499000026]]]]}}, {"type": "Feature", "properties": {"NUTS_ID": "ES521", "LEVL_CODE": 3, "CNTR_CODE": "ES", "NAME_LATN": "Alicante/Alacant", "NUTS_NAME": "Alicante/Alacant", "MOUNT_TYPE": 2, "URBN_TYPE": 1, "COAST_TYPE": 1, "NAME_ENGL": "Spain", "NAME_FREN": "Espagne", "ISO3_CODE": "ESP", "SVRG_UN": "UN Member State", "CAPT": "Madrid", "EU_STAT": "T", "EFTA_STAT": "F", "CC_STAT": "F", "NAME_GERM": "Spanien"}, "geometry": {"type": "MultiPolygon", "coordinates": [[[[-0.762135499999943, 37.84700799900003], [-1.02141011599997, 38.091179529000044], [-0.980604863999929, 38.272962187000076], [-1.079650395999977, 38.40121808200007], [-1.008048500999962, 38.59337533100006], [-1.02687, 38.65550949900006], [-0.940015948999928, 38.69739639000005], [-0.928884499999924, 38.783839999000065], [-0.605677358999969, 38.70290590800005], [-0.56657800499994, 38.79096198800005], [-0.339670380999962, 38.86550338400008], [-0.037616, 38.88641349900007], [0.143804173000035, 38.828876026000046], [0.198210990000064, 38.757567178000045], [-0.053392569999971, 38.59337533100006], [-0.493176622999954, 38.318777717000046], [-0.762135499999943, 37.84700799900003]]]]}}, {"type": "Feature", "properties": {"NUTS_ID": "ES522", "LEVL_CODE": 3, "CNTR_CODE": "ES", "NAME_LATN": "Castell\u00f3n/Castell\u00f3", "NUTS_NAME": "Castell\u00f3n/Castell\u00f3", "MOUNT_TYPE": 2, "URBN_TYPE": 2, "COAST_TYPE": 1, "NAME_ENGL": "Spain", "NAME_FREN": "Espagne", "ISO3_CODE": "ESP", "SVRG_UN": "UN Member State", "CAPT": "Madrid", "EU_STAT": "T", "EFTA_STAT": "F", "CC_STAT": "F", "NAME_GERM": "Spanien"}, "geometry": {"type": "MultiPolygon", "coordinates": [[[[0.170789500000069, 40.73283699900003], [0.261888675000023, 40.67731817900005], [0.515238500000066, 40.52291849900007], [0.261888675000023, 40.237198566000075], [0.003260715000067, 39.94552611800003], [-0.188467, 39.72195449900005], [-0.341858922999961, 39.79362906000006], [-0.451982612999927, 39.736998965000055], [-0.616291590999936, 39.753528706000054], [-0.797643, 39.88107649900007], [-0.843460550999964, 39.94552611800003], [-0.627548120999961, 40.09007229200006], [-0.538523877999978, 40.22952623400005], [-0.40543674099996, 40.26119316300003], [-0.316466239999954, 40.351321264000035], [-0.298303112999974, 40.56567575100007], [-0.354874731999928, 40.65654937900007], [-0.182900057999973, 40.767509509000035], [0.059479134000071, 40.704132970000046], [0.170789500000069, 40.73283699900003]]]]}}, {"type": "Feature", "properties": {"NUTS_ID": "ES523", "LEVL_CODE": 3, "CNTR_CODE": "ES", "NAME_LATN": "Valencia/Val\u00e8ncia", "NUTS_NAME": "Valencia/Val\u00e8ncia", "MOUNT_TYPE": 2, "URBN_TYPE": 1, "COAST_TYPE": 1, "NAME_ENGL": "Spain", "NAME_FREN": "Espagne", "ISO3_CODE": "ESP", "SVRG_UN": "UN Member State", "CAPT": "Madrid", "EU_STAT": "T", "EFTA_STAT": "F", "CC_STAT": "F", "NAME_GERM": "Spanien"}, "geometry": {"type": "MultiPolygon", "coordinates": [[[[-0.976835282999957, 39.967973302000075], [-0.870223610999972, 39.87549341700003], [-0.797643, 39.88107649900007], [-0.616291590999936, 39.753528706000054], [-0.451982612999927, 39.736998965000055], [-0.341858922999961, 39.79362906000006], [-0.188467, 39.72195449900005], [-0.325937360999944, 39.41448571900003], [-0.202989284999944, 39.081167106000066], [-0.037616, 38.88641349900007], [-0.339670380999962, 38.86550338400008], [-0.56657800499994, 38.79096198800005], [-0.605677358999969, 38.70290590800005], [-0.928884499999924, 38.783839999000065], [-0.955167963999941, 38.924093447000075], [-1.125289988999953, 38.94007386800007], [-1.218018067999935, 39.04907153900007], [-1.195562407999944, 39.28227607400004], [-1.505146499999967, 39.41801449900004], [-1.49228517499995, 39.55638430300007], [-1.315943551999965, 39.671361114000035], [-1.21867122499998, 39.81642640000007], [-1.206563410999934, 39.94552611800003], [-1.142361499999936, 39.97185549900007], [-0.976835282999957, 39.967973302000075]]], [[[-1.15154617099995, 40.08954873700003], [-1.165154, 40.01010899900007], [-1.315943551999965, 40.01212981500004], [-1.381719259999954, 40.03442853000007], [-1.448831499999926, 40.145358499000054], [-1.285601178999968, 40.17801863500006], [-1.15154617099995, 40.08954873700003]]]]}}, {"type": "Feature", "properties": {"NUTS_ID": "ES531", "LEVL_CODE": 3, "CNTR_CODE": "ES", "NAME_LATN": "Eivissa y Formentera", "NUTS_NAME": "Eivissa y Formentera", "MOUNT_TYPE": 4, "URBN_TYPE": 2, "COAST_TYPE": 1, "NAME_ENGL": "Spain", "NAME_FREN": "Espagne", "ISO3_CODE": "ESP", "SVRG_UN": "UN Member State", "CAPT": "Madrid", "EU_STAT": "T", "EFTA_STAT": "F", "CC_STAT": "F", "NAME_GERM": "Spanien"}, "geometry": {"type": "MultiPolygon", "coordinates": [[[[1.43712449700007, 38.91642408800004], [1.40386776500003, 38.83802076300003], [1.34529279100002, 38.87267517200007], [1.251486035000028, 38.86048982700004], [1.195348912000043, 38.95879660300005], [1.304495290000034, 38.969676364000065], [1.294662318000064, 39.02756132400003], [1.363737170000036, 39.07170220200004], [1.537777551000033, 39.112545631000046], [1.588704071000052, 39.093364490000056], [1.613309789000027, 39.03192501400008], [1.523424361000025, 38.94682908500005], [1.43712449700007, 38.91642408800004]]], [[[1.443128582000043, 38.76328540500003], [1.519217299000047, 38.689504810000074], [1.577973974000031, 38.73062308800007], [1.619424551000066, 38.64934848000007], [1.528947174000052, 38.62004482700007], [1.470886238000048, 38.68508568200008], [1.382773771000075, 38.630379136000045], [1.375931791000028, 38.68573278900004], [1.443128582000043, 38.76328540500003]]]]}}, {"type": "Feature", "properties": {"NUTS_ID": "ES532", "LEVL_CODE": 3, "CNTR_CODE": "ES", "NAME_LATN": "Mallorca", "NUTS_NAME": "Mallorca", "MOUNT_TYPE": 4, "URBN_TYPE": 1, "COAST_TYPE": 1, "NAME_ENGL": "Spain", "NAME_FREN": "Espagne", "ISO3_CODE": "ESP", "SVRG_UN": "UN Member State", "CAPT": "Madrid", "EU_STAT": "T", "EFTA_STAT": "F", "CC_STAT": "F", "NAME_GERM": "Spanien"}, "geometry": {"type": "MultiPolygon", "coordinates": [[[[2.330468234000023, 39.57737996700007], [2.586805382000023, 39.71761818500005], [2.669393384000045, 39.79243338600003], [2.778912347000073, 39.855421325000066], [2.843948552000029, 39.86200666600007], [2.949469961000034, 39.91864344700008], [3.071163583000043, 39.919015983000065], [3.124021722000066, 39.86530652700003], [3.165371966000066, 39.90283922000003], [3.21035439700006, 39.879664379000076], [3.144971531000067, 39.77390311700003], [3.252603552000039, 39.729881602000034], [3.347323600000038, 39.788235652000026], [3.456841079000071, 39.744512351000026], [3.455868277000036, 39.657476866000025], [3.40381013800004, 39.63540703000007], [3.402083151000056, 39.58274707600003], [3.296552538000071, 39.49898883900005], [3.229569326000046, 39.36008221000003], [3.050571128000058, 39.265941965000025], [2.958747995000067, 39.36169013400007], [2.787583454000071, 39.36333343900003], [2.722544390000053, 39.47570750600005], [2.751142812000069, 39.50371017800006], [2.63017609700006, 39.56717252400006], [2.539187887000026, 39.52255668200007], [2.518705925000063, 39.45838166800007], [2.443140087000074, 39.52253611000003], [2.330468234000023, 39.57737996700007]]]]}}, {"type": "Feature", "properties": {"NUTS_ID": "ES533", "LEVL_CODE": 3, "CNTR_CODE": "ES", "NAME_LATN": "Menorca", "NUTS_NAME": "Menorca", "MOUNT_TYPE": 4, "URBN_TYPE": 2, "COAST_TYPE": 1, "NAME_ENGL": "Spain", "NAME_FREN": "Espagne", "ISO3_CODE": "ESP", "SVRG_UN": "UN Member State", "CAPT": "Madrid", "EU_STAT": "T", "EFTA_STAT": "F", "CC_STAT": "F", "NAME_GERM": "Spanien"}, "geometry": {"type": "MultiPolygon", "coordinates": [[[[4.257760989000076, 39.96462597900006], [4.306523555000069, 39.86678373600006], [4.273286062000068, 39.80883085800008], [4.207565481000074, 39.82539866400003], [4.020609810000053, 39.92166598000006], [3.957004436000034, 39.93852641900003], [3.819616476000022, 39.927920148000055], [3.828048327000033, 39.99368857700006], [3.791048143000069, 40.01768992900003], [3.821407585000031, 40.050460946000044], [3.934490861000029, 40.06197951900003], [4.170689024000069, 40.06103095200007], [4.257760989000076, 39.96462597900006]]]]}}, {"type": "Feature", "properties": {"NUTS_ID": "ES611", "LEVL_CODE": 3, "CNTR_CODE": "ES", "NAME_LATN": "Almer\u00eda", "NUTS_NAME": "Almer\u00eda", "MOUNT_TYPE": 2, "URBN_TYPE": 2, "COAST_TYPE": 1, "NAME_ENGL": "Spain", "NAME_FREN": "Espagne", "ISO3_CODE": "ESP", "SVRG_UN": "UN Member State", "CAPT": "Madrid", "EU_STAT": "T", "EFTA_STAT": "F", "CC_STAT": "F", "NAME_GERM": "Spanien"}, "geometry": {"type": "MultiPolygon", "coordinates": [[[[-1.630033, 37.37518299900006], [-1.81547411899993, 37.18990958100005], [-1.910271207999926, 36.94641813800007], [-2.093750417999956, 36.780721045000064], [-2.141853451999964, 36.737279976000025], [-2.361896199999933, 36.82927919000008], [-2.51435455799998, 36.81977332200006], [-2.584358102999943, 36.78339274100006], [-2.751629279999975, 36.69646253600007], [-3.128691, 36.75088799900004], [-2.964059077999934, 37.10780905000007], [-2.835372848999953, 37.24384131800008], [-2.675668696999935, 37.25080420000006], [-2.584358102999943, 37.42005714100003], [-2.51435455799998, 37.45776409400003], [-2.37948053599996, 37.530413106000026], [-2.275577529999964, 37.87011750000005], [-2.207631499999934, 37.91658799900006], [-2.093750417999956, 37.88131360400007], [-2.00956457999996, 37.855237240000065], [-1.999030239999968, 37.671340979000036], [-1.884248996999929, 37.50704961100007], [-1.630033, 37.37518299900006]]]]}}, {"type": "Feature", "properties": {"NUTS_ID": "ES612", "LEVL_CODE": 3, "CNTR_CODE": "ES", "NAME_LATN": "C\u00e1diz", "NUTS_NAME": "C\u00e1diz", "MOUNT_TYPE": 4, "URBN_TYPE": 1, "COAST_TYPE": 1, "NAME_ENGL": "Spain", "NAME_FREN": "Espagne", "ISO3_CODE": "ESP", "SVRG_UN": "UN Member State", "CAPT": "Madrid", "EU_STAT": "T", "EFTA_STAT": "F", "CC_STAT": "F", "NAME_GERM": "Spanien"}, "geometry": {"type": "MultiPolygon", "coordinates": [[[[-5.142423, 37.00389099900008], [-5.114892661999932, 36.884466873000065], [-5.304604422999944, 36.84839613300005], [-5.317362922999962, 36.71211587700003], [-5.470659792999925, 36.55682881100006], [-5.252405, 36.31127549900003], [-5.339225, 36.15203499900008], [-5.344010499999968, 36.152633499000046], [-5.35152249999993, 36.15256899900004], [-5.59908199399996, 36.02270494800007], [-6.026009989999977, 36.19277329500005], [-6.206870637999941, 36.39655692600007], [-6.243476597999972, 36.57321569000004], [-6.34427253399997, 36.62566031400007], [-6.392275881999979, 36.644015885000044], [-6.431910706999929, 36.72939931700006], [-6.345561, 36.798766999000065], [-6.331072499999948, 36.89883799900008], [-5.935067846999971, 36.84729904300008], [-5.664740463999976, 36.95745805800004], [-5.534953322999968, 36.937705770000036], [-5.468547884999964, 37.039558154000076], [-5.417344507999928, 36.959495411000034], [-5.311473236999973, 37.01623803900003], [-5.22772602799995, 36.961916992000056], [-5.142423, 37.00389099900008]], [[-5.647962684999925, 36.55993794500006], [-5.640311853999947, 36.49697611700003], [-5.503777536999962, 36.493273499000054], [-5.511936019999951, 36.54955645000007], [-5.647962684999925, 36.55993794500006]]]]}}, {"type": "Feature", "properties": {"NUTS_ID": "ES613", "LEVL_CODE": 3, "CNTR_CODE": "ES", "NAME_LATN": "C\u00f3rdoba", "NUTS_NAME": "C\u00f3rdoba", "MOUNT_TYPE": 4, "URBN_TYPE": 1, "COAST_TYPE": 3, "NAME_ENGL": "Spain", "NAME_FREN": "Espagne", "ISO3_CODE": "ESP", "SVRG_UN": "UN Member State", "CAPT": "Madrid", "EU_STAT": "T", "EFTA_STAT": "F", "CC_STAT": "F", "NAME_GERM": "Spanien"}, "geometry": {"type": "MultiPolygon", "coordinates": [[[[-4.268895, 38.34721299900008], [-4.180784012999936, 38.161296984000046], [-4.268916097999977, 38.01511781500005], [-4.274728868999944, 37.81745277400006], [-4.195559626999966, 37.61775659400007], [-4.000835, 37.40211499900005], [-4.214305873999933, 37.32067884800006], [-4.327640499999973, 37.184356499000046], [-4.415276295999945, 37.25459043400008], [-4.653374499999927, 37.25585549900006], [-4.908259262999934, 37.47404319700007], [-5.010721376999925, 37.698966304000066], [-5.377743185999975, 37.61502377100004], [-5.333542373999933, 37.795115028000055], [-5.584845499999972, 38.13175199900007], [-5.534566687999927, 38.214601035000044], [-5.547784471999933, 38.436986958000034], [-5.163197674999935, 38.71171944300005], [-5.046996, 38.729133499000056], [-4.268895, 38.34721299900008]]]]}}, {"type": "Feature", "properties": {"NUTS_ID": "ES614", "LEVL_CODE": 3, "CNTR_CODE": "ES", "NAME_LATN": "Granada", "NUTS_NAME": "Granada", "MOUNT_TYPE": 3, "URBN_TYPE": 2, "COAST_TYPE": 1, "NAME_ENGL": "Spain", "NAME_FREN": "Espagne", "ISO3_CODE": "ESP", "SVRG_UN": "UN Member State", "CAPT": "Madrid", "EU_STAT": "T", "EFTA_STAT": "F", "CC_STAT": "F", "NAME_GERM": "Spanien"}, "geometry": {"type": "MultiPolygon", "coordinates": [[[[-2.341602, 38.02601999900003], [-2.207631499999934, 37.91658799900006], [-2.275577529999964, 37.87011750000005], [-2.37948053599996, 37.530413106000026], [-2.51435455799998, 37.45776409400003], [-2.584358102999943, 37.42005714100003], [-2.675668696999935, 37.25080420000006], [-2.835372848999953, 37.24384131800008], [-2.964059077999934, 37.10780905000007], [-3.128691, 36.75088799900004], [-3.439904733999981, 36.70179207500007], [-3.777457499999969, 36.737926499000025], [-3.831004384999972, 36.84901154200003], [-4.244708943999967, 37.00408887100008], [-4.327640499999973, 37.184356499000046], [-4.214305873999933, 37.32067884800006], [-4.000835, 37.40211499900005], [-3.86165959899995, 37.39181952600006], [-3.516007702999957, 37.60105082200005], [-3.362870627999939, 37.57434884700007], [-3.234228075999965, 37.63567852800003], [-2.947491354999954, 37.650276303000055], [-2.779723744999956, 37.90913696600006], [-2.584358102999943, 38.05877723700007], [-2.551274, 38.08411799900006], [-2.51435455799998, 38.07388799300003], [-2.341602, 38.02601999900003]]]]}}, {"type": "Feature", "properties": {"NUTS_ID": "ES615", "LEVL_CODE": 3, "CNTR_CODE": "ES", "NAME_LATN": "Huelva", "NUTS_NAME": "Huelva", "MOUNT_TYPE": 4, "URBN_TYPE": 2, "COAST_TYPE": 1, "NAME_ENGL": "Spain", "NAME_FREN": "Espagne", "ISO3_CODE": "ESP", "SVRG_UN": "UN Member State", "CAPT": "Madrid", "EU_STAT": "T", "EFTA_STAT": "F", "CC_STAT": "F", "NAME_GERM": "Spanien"}, "geometry": {"type": "MultiPolygon", "coordinates": [[[[-6.180307499999969, 37.94107799900007], [-6.183934657999941, 37.79737229500006], [-6.489791938999929, 37.660402403000035], [-6.322912934999977, 37.44880469100008], [-6.37615336999994, 37.032687845000055], [-6.331072499999948, 36.89883799900008], [-6.345561, 36.798766999000065], [-6.542482904999929, 36.98501900400004], [-6.996933309999974, 37.18990958100005], [-7.046542834999968, 37.206593146000046], [-7.139898807999941, 37.20736498500003], [-7.332397399999934, 37.18990958100005], [-7.40191649999997, 37.17482749900006], [-7.51269149999996, 37.526256499000056], [-7.236406944999942, 37.96403325500006], [-7.012678035999954, 38.039935298000046], [-6.931738499999938, 38.20837799900005], [-6.561083878999966, 38.02828107700003], [-6.34427253399997, 38.002142106000065], [-6.180307499999969, 37.94107799900007]]]]}}, {"type": "Feature", "properties": {"NUTS_ID": "ES616", "LEVL_CODE": 3, "CNTR_CODE": "ES", "NAME_LATN": "Ja\u00e9n", "NUTS_NAME": "Ja\u00e9n", "MOUNT_TYPE": 3, "URBN_TYPE": 2, "COAST_TYPE": 3, "NAME_ENGL": "Spain", "NAME_FREN": "Espagne", "ISO3_CODE": "ESP", "SVRG_UN": "UN Member State", "CAPT": "Madrid", "EU_STAT": "T", "EFTA_STAT": "F", "CC_STAT": "F", "NAME_GERM": "Spanien"}, "geometry": {"type": "MultiPolygon", "coordinates": [[[[-2.551274, 38.08411799900006], [-2.584358102999943, 38.05877723700007], [-2.779723744999956, 37.90913696600006], [-2.947491354999954, 37.650276303000055], [-3.234228075999965, 37.63567852800003], [-3.362870627999939, 37.57434884700007], [-3.516007702999957, 37.60105082200005], [-3.86165959899995, 37.39181952600006], [-4.000835, 37.40211499900005], [-4.195559626999966, 37.61775659400007], [-4.274728868999944, 37.81745277400006], [-4.268916097999977, 38.01511781500005], [-4.180784012999936, 38.161296984000046], [-4.268895, 38.34721299900008], [-4.214013387999955, 38.39396172600004], [-3.460458978999952, 38.410879496000064], [-3.348006253999927, 38.46674064000007], [-2.893074572999978, 38.46213046100007], [-2.762069, 38.53277949900007], [-2.584358102999943, 38.47658698200007], [-2.51435455799998, 38.40214304300008], [-2.491088833999925, 38.37250489400003], [-2.447911474999955, 38.22355501100003], [-2.51435455799998, 38.13144134400005], [-2.551274, 38.08411799900006]]]]}}, {"type": "Feature", "properties": {"NUTS_ID": "ES617", "LEVL_CODE": 3, "CNTR_CODE": "ES", "NAME_LATN": "M\u00e1laga", "NUTS_NAME": "M\u00e1laga", "MOUNT_TYPE": 2, "URBN_TYPE": 1, "COAST_TYPE": 1, "NAME_ENGL": "Spain", "NAME_FREN": "Espagne", "ISO3_CODE": "ESP", "SVRG_UN": "UN Member State", "CAPT": "Madrid", "EU_STAT": "T", "EFTA_STAT": "F", "CC_STAT": "F", "NAME_GERM": "Spanien"}, "geometry": {"type": "MultiPolygon", "coordinates": [[[[-5.158319209999945, 36.414122374000044], [-5.252405, 36.31127549900003], [-5.470659792999925, 36.55682881100006], [-5.317362922999962, 36.71211587700003], [-5.304604422999944, 36.84839613300005], [-5.114892661999932, 36.884466873000065], [-5.142423, 37.00389099900008], [-4.653374499999927, 37.25585549900006], [-4.415276295999945, 37.25459043400008], [-4.327640499999973, 37.184356499000046], [-4.244708943999967, 37.00408887100008], [-3.831004384999972, 36.84901154200003], [-3.777457499999969, 36.737926499000025], [-4.396126000999971, 36.71069199200008], [-4.655479535999973, 36.51020574300003], [-4.946663306999938, 36.48772146600004], [-5.158319209999945, 36.414122374000044]]], [[[-5.511936019999951, 36.54955645000007], [-5.503777536999962, 36.493273499000054], [-5.640311853999947, 36.49697611700003], [-5.647962684999925, 36.55993794500006], [-5.511936019999951, 36.54955645000007]]]]}}, {"type": "Feature", "properties": {"NUTS_ID": "ES618", "LEVL_CODE": 3, "CNTR_CODE": "ES", "NAME_LATN": "Sevilla", "NUTS_NAME": "Sevilla", "MOUNT_TYPE": 4, "URBN_TYPE": 1, "COAST_TYPE": 3, "NAME_ENGL": "Spain", "NAME_FREN": "Espagne", "ISO3_CODE": "ESP", "SVRG_UN": "UN Member State", "CAPT": "Madrid", "EU_STAT": "T", "EFTA_STAT": "F", "CC_STAT": "F", "NAME_GERM": "Spanien"}, "geometry": {"type": "MultiPolygon", "coordinates": [[[[-5.584845499999972, 38.13175199900007], [-5.333542373999933, 37.795115028000055], [-5.377743185999975, 37.61502377100004], [-5.010721376999925, 37.698966304000066], [-4.908259262999934, 37.47404319700007], [-4.653374499999927, 37.25585549900006], [-5.142423, 37.00389099900008], [-5.22772602799995, 36.961916992000056], [-5.311473236999973, 37.01623803900003], [-5.417344507999928, 36.959495411000034], [-5.468547884999964, 37.039558154000076], [-5.534953322999968, 36.937705770000036], [-5.664740463999976, 36.95745805800004], [-5.935067846999971, 36.84729904300008], [-6.331072499999948, 36.89883799900008], [-6.37615336999994, 37.032687845000055], [-6.322912934999977, 37.44880469100008], [-6.489791938999929, 37.660402403000035], [-6.183934657999941, 37.79737229500006], [-6.180307499999969, 37.94107799900007], [-5.964463952999949, 38.00907635800007], [-5.820868460999975, 38.17092030800006], [-5.717348002999927, 38.18213302200007], [-5.694235317999926, 38.103283340000075], [-5.584845499999972, 38.13175199900007]]]]}}, {"type": "Feature", "properties": {"NUTS_ID": "ES620", "LEVL_CODE": 3, "CNTR_CODE": "ES", "NAME_LATN": "Murcia", "NUTS_NAME": "Murcia", "MOUNT_TYPE": 2, "URBN_TYPE": 1, "COAST_TYPE": 1, "NAME_ENGL": "Spain", "NAME_FREN": "Espagne", "ISO3_CODE": "ESP", "SVRG_UN": "UN Member State", "CAPT": "Madrid", "EU_STAT": "T", "EFTA_STAT": "F", "CC_STAT": "F", "NAME_GERM": "Spanien"}, "geometry": {"type": "MultiPolygon", "coordinates": [[[[-1.02687, 38.65550949900006], [-1.008048500999962, 38.59337533100006], [-1.079650395999977, 38.40121808200007], [-0.980604863999929, 38.272962187000076], [-1.02141011599997, 38.091179529000044], [-0.762135499999943, 37.84700799900003], [-0.840946970999937, 37.722655796000026], [-0.74020478999995, 37.66373659300007], [-0.759429330999978, 37.599786721000044], [-1.125289988999953, 37.57513629300007], [-1.315943551999965, 37.56229071300004], [-1.630033, 37.37518299900006], [-1.884248996999929, 37.50704961100007], [-1.999030239999968, 37.671340979000036], [-2.00956457999996, 37.855237240000065], [-2.093750417999956, 37.88131360400007], [-2.207631499999934, 37.91658799900006], [-2.341602, 38.02601999900003], [-2.093750417999956, 38.24980652200003], [-2.049718952999967, 38.28956276800005], [-1.756662795999944, 38.365026698000065], [-1.639295462999939, 38.31444245900008], [-1.530953816999954, 38.34596721100007], [-1.434000093999941, 38.64768911300007], [-1.315943551999965, 38.69259993600008], [-1.179208327999959, 38.740697744000045], [-1.125289988999953, 38.71054637800006], [-1.02687, 38.65550949900006]]]]}}, {"type": "Feature", "properties": {"NUTS_ID": "ES630", "LEVL_CODE": 3, "CNTR_CODE": "ES", "NAME_LATN": "Ceuta", "NUTS_NAME": "Ceuta", "MOUNT_TYPE": 4, "URBN_TYPE": 1, "COAST_TYPE": 1, "NAME_ENGL": "Spain", "NAME_FREN": "Espagne", "ISO3_CODE": "ESP", "SVRG_UN": "UN Member State", "CAPT": "Madrid", "EU_STAT": "T", "EFTA_STAT": "F", "CC_STAT": "F", "NAME_GERM": "Spanien"}, "geometry": {"type": "MultiPolygon", "coordinates": [[[[-5.339367492999941, 35.876148398000055], [-5.34337063199996, 35.87087626600004], [-5.38193549999994, 35.913023499000076], [-5.377675090999958, 35.915968974000066], [-5.364974637999978, 35.91667742800007], [-5.348897416999932, 35.90782137900004], [-5.340897040999948, 35.899756472000036], [-5.337821590999965, 35.89560658700003], [-5.336049750999962, 35.890785282000024], [-5.335717595999938, 35.88565945900007], [-5.336852384999929, 35.88064980300004], [-5.339367492999941, 35.876148398000055]]]]}}, {"type": "Feature", "properties": {"NUTS_ID": "ES640", "LEVL_CODE": 3, "CNTR_CODE": "ES", "NAME_LATN": "Melilla", "NUTS_NAME": "Melilla", "MOUNT_TYPE": 4, "URBN_TYPE": 2, "COAST_TYPE": 1, "NAME_ENGL": "Spain", "NAME_FREN": "Espagne", "ISO3_CODE": "ESP", "SVRG_UN": "UN Member State", "CAPT": "Madrid", "EU_STAT": "T", "EFTA_STAT": "F", "CC_STAT": "F", "NAME_GERM": "Spanien"}, "geometry": {"type": "MultiPolygon", "coordinates": [[[[-2.92812349999997, 35.27308149900006], [-2.970089, 35.28942999900005], [-2.952486499999964, 35.319768999000075], [-2.92812349999997, 35.27308149900006]]]]}}, {"type": "Feature", "properties": {"NUTS_ID": "ES703", "LEVL_CODE": 3, "CNTR_CODE": "ES", "NAME_LATN": "El Hierro", "NUTS_NAME": "El Hierro", "MOUNT_TYPE": 3, "URBN_TYPE": 3, "COAST_TYPE": 1, "NAME_ENGL": "Spain", "NAME_FREN": "Espagne", "ISO3_CODE": "ESP", "SVRG_UN": "UN Member State", "CAPT": "Madrid", "EU_STAT": "T", "EFTA_STAT": "F", "CC_STAT": "F", "NAME_GERM": "Spanien"}, "geometry": {"type": "MultiPolygon", "coordinates": [[[[-17.877136100999962, 27.815559929000074], [-17.954052885999943, 27.718801851000023], [-17.98805852199996, 27.632853045000047], [-18.052814833999946, 27.689883274000067], [-18.167520885999977, 27.723536956000032], [-18.135532884999975, 27.772354630000052], [-18.07154379399998, 27.75405889600006], [-17.918121454999948, 27.854453412000055], [-17.877136100999962, 27.815559929000074]]]]}}, {"type": "Feature", "properties": {"NUTS_ID": "ES704", "LEVL_CODE": 3, "CNTR_CODE": "ES", "NAME_LATN": "Fuerteventura", "NUTS_NAME": "Fuerteventura", "MOUNT_TYPE": 4, "URBN_TYPE": 2, "COAST_TYPE": 1, "NAME_ENGL": "Spain", "NAME_FREN": "Espagne", "ISO3_CODE": "ESP", "SVRG_UN": "UN Member State", "CAPT": "Madrid", "EU_STAT": "T", "EFTA_STAT": "F", "CC_STAT": "F", "NAME_GERM": "Spanien"}, "geometry": {"type": "MultiPolygon", "coordinates": [[[[-14.222725543999957, 28.161030769000035], [-14.333103595999944, 28.04213945600003], [-14.420444717999942, 28.082900448000032], [-14.313119351999944, 28.145093512000074], [-14.21685832399993, 28.226758646000064], [-14.201985093999951, 28.33072912500006], [-14.146484046999944, 28.439204216000064], [-14.101320210999972, 28.476399896000032], [-14.033226788999968, 28.597848687000067], [-14.01521989899993, 28.718201974000067], [-13.886309853999933, 28.760207023000078], [-13.84099983799996, 28.729383906000066], [-13.820800303999931, 28.593506047000062], [-13.865216785999962, 28.48177420500008], [-13.84846420699995, 28.420967380000036], [-13.913452340999982, 28.256761399000027], [-14.010875116999955, 28.206815825000035], [-14.222725543999957, 28.161030769000035]]]]}}, {"type": "Feature", "properties": {"NUTS_ID": "ES705", "LEVL_CODE": 3, "CNTR_CODE": "ES", "NAME_LATN": "Gran Canaria", "NUTS_NAME": "Gran Canaria", "MOUNT_TYPE": 2, "URBN_TYPE": 1, "COAST_TYPE": 1, "NAME_ENGL": "Spain", "NAME_FREN": "Espagne", "ISO3_CODE": "ESP", "SVRG_UN": "UN Member State", "CAPT": "Madrid", "EU_STAT": "T", "EFTA_STAT": "F", "CC_STAT": "F", "NAME_GERM": "Spanien"}, "geometry": {"type": "MultiPolygon", "coordinates": [[[[-15.441845727999976, 27.80012905600006], [-15.600289068999928, 27.73564013200007], [-15.672991422999928, 27.749948388000064], [-15.78790562499995, 27.83581932100003], [-15.83331364399993, 27.912130538000042], [-15.83387268399997, 27.97145050900008], [-15.709124885999927, 28.08657376800005], [-15.696982643999945, 28.150792843000033], [-15.525322009999968, 28.153865721000045], [-15.411904811999932, 28.100303869000072], [-15.414959773999954, 28.04667098500005], [-15.369292652999945, 27.99224418500006], [-15.386187804999963, 27.858049274000052], [-15.441845727999976, 27.80012905600006]]]]}}, {"type": "Feature", "properties": {"NUTS_ID": "ES706", "LEVL_CODE": 3, "CNTR_CODE": "ES", "NAME_LATN": "La Gomera", "NUTS_NAME": "La Gomera", "MOUNT_TYPE": 3, "URBN_TYPE": 3, "COAST_TYPE": 1, "NAME_ENGL": "Spain", "NAME_FREN": "Espagne", "ISO3_CODE": "ESP", "SVRG_UN": "UN Member State", "CAPT": "Madrid", "EU_STAT": "T", "EFTA_STAT": "F", "CC_STAT": "F", "NAME_GERM": "Spanien"}, "geometry": {"type": "MultiPolygon", "coordinates": [[[[-17.35211028799995, 28.099273270000026], [-17.31994231599998, 28.206951537000066], [-17.261686822999934, 28.22028628000004], [-17.11559017999997, 28.15243818400006], [-17.095598502999962, 28.094208227000024], [-17.200234803999933, 28.021063699000024], [-17.245957104999945, 28.01743467600005], [-17.35211028799995, 28.099273270000026]]]]}}, {"type": "Feature", "properties": {"NUTS_ID": "ES707", "LEVL_CODE": 3, "CNTR_CODE": "ES", "NAME_LATN": "La Palma", "NUTS_NAME": "La Palma", "MOUNT_TYPE": 3, "URBN_TYPE": 2, "COAST_TYPE": 1, "NAME_ENGL": "Spain", "NAME_FREN": "Espagne", "ISO3_CODE": "ESP", "SVRG_UN": "UN Member State", "CAPT": "Madrid", "EU_STAT": "T", "EFTA_STAT": "F", "CC_STAT": "F", "NAME_GERM": "Spanien"}, "geometry": {"type": "MultiPolygon", "coordinates": [[[[-17.75937369199994, 28.573696263000045], [-17.833762718999935, 28.457510241000023], [-17.96354576999994, 28.667627805000052], [-18.006835104999936, 28.77532388800006], [-17.920584589999976, 28.856790458000035], [-17.777947681999933, 28.838890485000036], [-17.72445506899993, 28.741180275000033], [-17.770181604999948, 28.676032166000027], [-17.75937369199994, 28.573696263000045]]]]}}, {"type": "Feature", "properties": {"NUTS_ID": "ES708", "LEVL_CODE": 3, "CNTR_CODE": "ES", "NAME_LATN": "Lanzarote", "NUTS_NAME": "Lanzarote", "MOUNT_TYPE": 4, "URBN_TYPE": 2, "COAST_TYPE": 1, "NAME_ENGL": "Spain", "NAME_FREN": "Espagne", "ISO3_CODE": "ESP", "SVRG_UN": "UN Member State", "CAPT": "Madrid", "EU_STAT": "T", "EFTA_STAT": "F", "CC_STAT": "F", "NAME_GERM": "Spanien"}, "geometry": {"type": "MultiPolygon", "coordinates": [[[[-13.739988965999942, 28.902985968000053], [-13.788615751999941, 28.837746457000037], [-13.883242965999955, 28.885725405000073], [-13.832004389999952, 28.92775955700006], [-13.831095151999932, 29.007901281000045], [-13.753372655999954, 29.079108793000046], [-13.603969104999976, 29.136011892000056], [-13.523197535999941, 29.145329925000055], [-13.513497375999975, 29.255342115000076], [-13.48294156199995, 29.26661325200007], [-13.418013556999938, 29.202884356000027], [-13.462666309999975, 29.128871678000053], [-13.46380714399993, 29.019419783000046], [-13.54113788799998, 28.958420019000073], [-13.739988965999942, 28.902985968000053]]]]}}]}